,storet_code,state,name,county,source,state.u,X,State,County,Lat,Long
1,1002,DELAWARE,KILLEN POND,KENT,475,DELAWARE,85,Delaware,Kent,38.981111,75.530556
2,1005,DELAWARE,MOORES LAKE,KENT,475,DELAWARE,86,Delaware,Kent,39.126111,75.519444
3,1007,DELAWARE,NOXONTOWN POND,NEH CASTLE,475,DELAWARE,87,Delaware,New Castle,39.434722,75.684722
4,1008,DELAWARE,SILVER LAKE,NEU CASTLE,475,DELAWARE,88,Delaware,New Castle,39.4375,75.694444
5,1009,DELAWARE,WILLIAMS POND,SUSSEX,475,DELAWARE,89,Delaware,Sussex,38.643889,75.604722
6,101,ALABAMA,BANKHEAD LAKE,,475,ALABAMA,1,Alabama,Tuscaloosa,33.263889,87.351389
7,1010,DELAWARE,TRUSSUM POND,SUSSEX,475,DELAWARE,90,Delaware,Sussex,38.522778,75.513333
8,103,ALABAMA,GANTT LAKE,NA,475,ALABAMA,2,Alabama,Covington,31.45,86.438889
9,104,ALABAMA,GUNTERSVILLE RESERVOIR,,475,ALABAMA,3,Alabama,Marshall,34.423333,86.383056
10,105,ALABAMA,HOLT LOCK AND DAM,TUSCALOOSA,475,ALABAMA,4,Alabama,Tuscaloosa,33.2125,87.580556
11,106,ALABAMA,LAY LAKE,NA,475,ALABAMA,5,Alabama,Talladega,33.195833,86.479167
12,107,ALABAMA,MARTIN LAKE,COOSA ELMORE TALLAPOOSA,475,ALABAMA,6,Alabama,Tallapoosa,32.866667,85.908333
13,108,ALABAMA,MITCHELL LAKE,e CHILTON COOSA  A,475,ALABAMA,7,Alabama,Coosa,32.808333,86.445833
14,109,ALABAMA,PICKWICK LAKE,"COLBERTLAUDERDALE AL, TISHOMINGO MS, HARDING",475,ALABAMA,8,Alabama,Lauderdale,35.002778,88.201389
15,112,ALABAMA,WEISS RESERVOIR,CHEROKEE ALT FLOYD GA,475,ALABAMA,9,Alabama,Cherokee,34.132778,85.793889
16,114,ALABAMA,WILSON LAKE,LAUDERDALE COLBERT LAHRENCE  I  I,475,ALABAMA,10,Alabama,Lauderdale,34.801389,87.615278
17,115,ALABAMA,LAKE PURDY,JEFFERSON SHELBY,475,ALABAMA,11,Alabama,Jefferson,33.478333,86.636944
18,1201,FLORIDA,ALLIGATOR LAKE,COLUMBIA,475,FLORIDA,91,Florida,Columbia,30.176111,82.626111
19,1202,FLORIDA,LAKE APOPKA,ORANGE LAKE,475,FLORIDA,92,Florida,Lake,28.633611,81.667222
20,1206,FLORIDA,CRESCENT,FLAGLER PUTNAM,475,FLORIDA,94,Florida,Putnam,29.3875,81.472222
21,1207,FLORIDA,DOCTOR'S LAKE,CLAY,475,FLORIDA,95,Florida,Clay,30.15,81.704167
22,1208,FLORIDA,LAKE DORA,LAKE,475,FLORIDA,96,Florida,Lake,28.788889,81.7125
23,1209,FLORIDA,LAKE EFFIE,POLK,475,FLORIDA,97,Florida,Polk,27.909167,81.606111
24,1210,FLORIDA,LAKE GEORGE,"PUTNAM,VOLUSIA",475,FLORIDA,98,Florida,Volusia,29.215278,81.580556
25,1211,FLORIDA,LAKE GIBSON,POLK,475,FLORIDA,99,Florida,Polk,28.108333,81.956111
26,1212,FLORIDA,GLENADA LAKE,HIGHLANDS,475,FLORIDA,100,Florida,Highlands,27.564722,81.509722
27,1214,FLORIDA,LAKE GRIFFIN,LAKE,475,FLORIDA,101,Florida,Lake,28.834167,81.868889
28,1215,FLORIDA,LAKE HAINES,POLK,475,FLORIDA,102,Florida,Polk,28.09,81.708611
29,1219,FLORIDA,HORSESHOE LAKE,SEMINOLE,475,FLORIDA,104,Florida,Seminole,28.637222,81.1375
30,1220,FLORIDA,LAKE HOWELL,SEMINOLE,475,FLORIDA,105,Florida,Seminole,28.640278,81.304167
31,1221,FLORIDA,LAKE ISTOKPOGA,HIGHLANDS,475,FLORIDA,106,Florida,Highlands,27.317778,81.294444
32,1223,FLORIDA,LAKE JESSUP,SEMINOLE,475,FLORIDA,107,Florida,Seminole,28.711111,81.227778
33,1224,FLORIDA,LAKE KISSIMMEE,OSCEOLA,475,FLORIDA,108,Florida,Osceola,27.948056,81.315
34,1227,FLORIDA,LAKE LULU,POLK,475,FLORIDA,109,Florida,Polk,27.995833,81.721389
35,1228,FLORIDA,LAKE MARION,POLK,475,FLORIDA,110,Florida,Polk,28.088611,81.534722
36,1229,FLORIDA,LAKE MINNEHAHA,ORANGE,475,FLORIDA,111,Florida,Orange,28.631667,81.355556
37,1230,FLORIDA,LAKE MINNEOLA,LAKE,475,FLORIDA,112,Florida,Lake,28.576389,81.763889
38,1231,FLORIDA,LAKE MONROE,"SEMINOLE, VOLUSIA",475,FLORIDA,113,Florida,Volusia,28.833889,81.315556
39,1232,FLORIDA,LAKE OKEECHOBEE,GLADESQHENDRYQHARTINAOKEECHOBEEQPALM BEACHoST LUCIE,475,FLORIDA,114,Florida,Palm Beach,26.836111,80.822222
40,1234,FLORIDA,LAKE POINSETT,BREVARD ORANGE OSCEOLA,475,FLORIDA,115,Florida,Brevard,28.35,80.863056
41,1236,FLORIDA,REEDY LAKE,POLK,475,FLORIDA,116,Florida,Polk,27.738889,81.516944
42,1238,FLORIDA,SOUTH LAKE,BREVARD,475,FLORIDA,117,Florida,Lake,28.616389,80.868889
43,1239,FLORIDA,LAKE TALQUIN,GADSOEN LEON,475,FLORIDA,118,Florida,Leon,30.390833,84.644722
44,1241,FLORIDA,LAKE TOHOPEKALIGA,OSCEOLA,475,FLORIDA,120,Florida,Osceola,28.268889,81.4
45,1242,FLORIDA,TROUT LAKE,LAKE,475,FLORIDA,121,Florida,Lake,28.866111,81.683056
46,1243,FLORIDA,LAKE WEOHYAKAPKA,POLK,475,FLORIDA,122,Florida,Polk,27.802222,81.431389
47,1246,FLORIDA,LAKE YALE,LAKE,475,FLORIDA,123,Florida,Lake,28.926111,81.753889
48,1247,FLORIDA,LAKE MUNSON,LEON,475,FLORIDA,124,Florida,Leon,30.370556,84.313056
49,1248,FLORIDA,LAKE SEMINOLE,PINELLAS,475,FLORIDA,125,Florida,Pinellas,27.866667,82.779167
50,1249,FLORIDA,LAWNE LAKE,ORANGE,475,FLORIDA,126,Florida,Orange,28.563056,81.436944
51,1250,FLORIDA,LAKE TARPON,PINELLAS,475,FLORIDA,127,Florida,Pinellas,28.138611,82.723056
52,1252,FLORIDA,LAKE ELOISE,POLK,475,FLORIDA,128,Florida,Polk,27.991111,81.704722
53,1258,FLORIDA,LAKE JESSIE,POLK,475,FLORIDA,129,Florida,Polk,28.056389,81.763333
54,1261,FLORIDA,EAST LAKE TOHOPEKALIGA,OSCEOLA,475,FLORIDA,130,Florida,Osceola,28.330278,81.254444
55,1301,GEORGIA,ALLATOONA RESERVOIR,BARTON CHEROKEE c088,475,GEORGIA,132,Georgia,Bartow,34.165,84.725833
56,1302,GEORGIA,LAKE BLACKSHEAR,CRISP DOOLY LEE SUMTER HORTH,475,GEORGIA,133,Georgia,Crisp,31.8475,83.940833
57,1303,GEORGIA,CHATUGE LAKE,TORNS GA; CLAY NC,475,GEORGIA,134,Georgia,Towns,34.973056,83.770833
58,1304,GEORGIA,CLARK HILL RESERVOIR,NA,475,GEORGIA,135,Georgia,Columbia,33.661944,82.199444
59,1309,GEORGIA,JACKSON LAKE,BUTTS JASPER NERTON,475,GEORGIA,136,Georgia,Jasper,33.321667,83.841111
60,1310,GEORGIA,SIDNEY LANIER LAKE,DAHSON FORSYTH GRINNETT HALL LUMPKIN,475,GEORGIA,137,Georgia,Gwinnett,34.161111,84.073611
61,1311,GEORGIA,NOTTELY RESERVOIR,UNION,475,GEORGIA,138,Georgia,Union,34.9575,84.090833
62,1313,GEORGIA,SINCLAIR LAKE,8ALDMINMANCOCK PUTNAM,475,GEORGIA,140,Georgia,Baldwin,32.143056,83.205556
63,1316,GEORGIA,BLUE RIDGE LAKE,FANNIN,475,GEORGIA,142,Georgia,Fannin,34.881111,84.279722
64,1317,GEORGIA,LAKE HARDING,HARRIS GA CHAMBERSo LEE AL,475,GEORGIA,143,Georgia,Harris,32.664444,85.091389
65,1318,GEORGIA,BURTON LAKE,RABUN,475,GEORGIA,144,Georgia,Rabun,34.8,83.541667
66,1319,GEORGIA,HIGH FALLS POND,RUTTS LAMAR MONROE,475,GEORGIA,145,Georgia,Monroe,33.179444,84.020556
67,1601,IDAHO,AMERICAN FALLS RESERVOIR,BANNOCK BINGHAM PORER,477,IDAHO,147,Idaho,Power,42.7875,112.870833
68,1602,IDAHO,CASCADE RESERVOIR,VALLEY,477,IDAHO,148,Idaho,Valley,44.5325,116.0525
69,1603,IDAHO,COEUR D'ALENE LAKE,SENEMAM KOOTENAI,477,IDAHO,149,Idaho,Kootenai,47.657778,116.788889
70,1604,IDAHO,DWORSHAK RESERVOIR,CLEARRATER,477,IDAHO,150,Idaho,Clearwater,46.518333,116.290278
71,1605,IDAHO,HAUSER LAKE,KOOTENAI,477,IDAHO,151,Idaho,Kootenai,47.774444,117.0125
72,1606,IDAHO,HAYDEN LAKE,KOOTENAI,477,IDAHO,152,Idaho,Kootenai,47.791389,116.696389
73,1607,IDAHO,ISLAND PARK RESERVOIR,FREMONT,477,IDAHO,153,Idaho,Fremont,44.394722,111.553611
74,1608,IDAHO,LAKE LOWELL,CANYON,477,IDAHO,154,Idaho,Canyon,43.533611,116.623056
75,1609,IDAHO,MAGIC RESERVOIR,CAMAS BLAINE,477,IDAHO,155,Idaho,Blaine,43.257778,114.3575
76,1610,IDAHO,PALISADES RESERVOIR,"RONNEVILLE ID, LINCOLN MY",477,IDAHO,156,Idaho,Bonneville,43.185,111.076944
77,1611,IDAHO,PAYETTE LAKE,VALLEY,477,IDAHO,157,Idaho,Valley,44.926389,116.110278
78,1612,IDAHO,LOWER TWIN LAKES,KOOTENAI,477,IDAHO,158,Idaho,Kootenai,47.890833,116.883333
79,1613,IDAHO,UPPER TWIN LAKES,KOOTENAI,477,IDAHO,159,Idaho,Kootenai,47.8875,116.919444
80,1703,ILLINOIS,BLOOMINGTON LAKE,MCLEAN,475,ILLINOIS,162,Illinois,Mclean,40.661944,88.938889
81,1706,ILLINOIS,CARLYLE RESERVOIR,BOND CLINTON FAYETTE,475,ILLINOIS,163,Illinois,Clinton,38.728611,89.270556
82,1708,ILLINOIS,LAKE CHARLESTON,COLES,475,ILLINOIS,164,Illinois,Coles,39.458333,88.140278
83,1711,ILLINOIS,COFFEEN LAKE,MONTGOMERY,475,ILLINOIS,165,Illinois,Montgomery,39.0375,89.386111
84,1712,ILLINOIS,CRAB ORCHARD LAKE,JACKSON MILLIAMSON,475,ILLINOIS,166,Illinois,Williamson,37.730556,89.141667
85,1714,ILLINOIS,LAKE DECATUR,MACON,475,ILLINOIS,167,Illinois,Macon,39.825,88.953056
86,1725,ILLINOIS,LONG LAKE,LAKE,475,ILLINOIS,168,Illinois,Lake,42.375833,88.136111
87,1726,ILLINOIS,LAKE LOU YAEGER,MONTGOMERY,475,ILLINOIS,169,Illinois,Montgomery,39.1875,89.599444
88,1727,ILLINOIS,LAKE MARIE,LAKE,475,ILLINOIS,170,Illinois,Lake,42.466111,88.138333
89,1733,ILLINOIS,PISTAKEE LAKE,LAKE,475,ILLINOIS,171,Illinois,Mchenry,42.388333,88.206111
90,1735,ILLINOIS,RENO LAKE,FRANKLIN JEFFERSON,475,ILLINOIS,172,Illinois,Franklin,38.043056,88.951389
91,1739,ILLINOIS,SHELBYVILLE RESERVOIR,SHELBY MOULTRIE,475,ILLINOIS,173,Illinois,Shelby,39.408333,88.775
92,1740,ILLINOIS,HIGHLAND SILVER LAKE,MADISON,475,ILLINOIS,174,Illinois,Madison,38.768056,89.697222
93,1742,ILLINOIS,LAKE SPRINGFIELD,SANGAHON,475,ILLINOIS,175,Illinois,Sangamon,39.687222,89.649444
94,1748,ILLINOIS,LAKE VERMILION,VERMILION,475,ILLINOIS,176,Illinois,Vermilion,40.156667,87.650833
95,1750,ILLINOIS,WONDER LAKE,HCHENRY,475,ILLINOIS,177,Illinois,Mchenry,42.4,88.344444
96,1751,ILLINOIS,LAKE STOREY,KNOX,475,ILLINOIS,178,Illinois,Knox,40.988889,90.408333
97,1752,ILLINOIS,DEPUE LAKE,BUREAU,475,ILLINOIS,179,Illinois,Bureau,41.310556,89.319167
98,1753,ILLINOIS,SANGCHRIS LAKE,CHRISTIAN,475,ILLINOIS,180,Illinois,Christian,39.644444,89.480556
99,1754,ILLINOIS,HOLIDAY LAKE,LASALLE,475,ILLINOIS,181,Illinois,La Salle,41.624444,88.658333
100,1755,ILLINOIS,FOX LAKE CHAIN,LAKE,475,ILLINOIS,182,Illinois,Lake,42.4175,88.141111
101,1756,ILLINOIS,GRASS LAKE,LAKE,475,ILLINOIS,183,Illinois,Lake,42.432778,88.163889
102,1757,ILLINOIS,EAST LOON LAKE,LAKE,475,ILLINOIS,184,Illinois,Lake,42.455,88.073611
103,1758,ILLINOIS,SLOCUM LAKE,LAKE,475,ILLINOIS,185,Illinois,Lake,42.259444,88.188889
104,1759,ILLINOIS,CEDAR LAKE,LAKE,475,ILLINOIS,186,Illinois,Lake,42.421389,88.089444
105,1761,ILLINOIS,LAKE WEE-MA-TUK,FULTON,475,ILLINOIS,187,Illinois,Fulton,40.532222,90.170556
106,1762,ILLINOIS,RACCOON LAKE,MARION,475,ILLINOIS,188,Illinois,Marion,38.544444,89.104167
107,1763,ILLINOIS,BALDWIN LAKE,RANDOLPH,475,ILLINOIS,189,Illinois,Randolph,38.206944,89.865278
108,1764,ILLINOIS,LAKE VANDALIA,FAYETTE,475,ILLINOIS,190,Illinois,Fayette,39.009722,89.120833
109,1765,ILLINOIS,OLD BEN MINE RESERVOIR,FRANKLIN,475,ILLINOIS,191,Illinois,Franklin,38.104167,89.0125
110,1766,ILLINOIS,HORSESHOE LAKE,MADISON,475,ILLINOIS,192,Illinois,Madison,38.683611,90.113333
111,1805,INDIANA,CATARACT LAKE,"OWEN, PUTNAM",475,INDIANA,193,Indiana,Owen,39.453611,86.843333
112,1811,INDIANA,GEIST RESERVOIR,"HAMILTON, MARION",475,INDIANA,194,Indiana,Hamilton,39.933056,85.938056
113,1817,INDIANA,JAMES LAKE,KOSCIUSKO,475,INDIANA,195,Indiana,Kosciusko,41.317222,85.726667
114,1827,INDIANA,MISSISSINEWA RESERVOIR,"GRANT, MIAMI, WABASH",475,INDIANA,196,Indiana,Wabash,40.670833,85.802778
115,1828,INDIANA,MONROE RESERVOIR,BRORN MONROE,475,INDIANA,197,Indiana,Monroe,39.008611,86.515833
116,1829,INDIANA,MORSE RESERVOIR,HAMILTON,475,INDIANA,198,Indiana,Hamilton,40.073611,86.05
117,1836,INDIANA,WAWASEE LAKE,KOSCIUSKO,475,INDIANA,199,Indiana,Kosciusko,41.392778,85.679167
118,1837,INDIANA,WEBSTER LAKE,KOSCIUSKO,475,INDIANA,200,Indiana,Kosciusko,41.328611,85.674444
119,1839,INDIANA,WHITEWATER LAKE,UNION,475,INDIANA,201,Indiana,Union,39.605278,84.971389
120,1840,INDIANA,WINONA LAKE,KOSCIUSKO,475,INDIANA,202,Indiana,Kosciusko,41.2175,85.8275
121,1841,INDIANA,WESTLER LAKE,LAGRANGE,475,INDIANA,203,Indiana,Lagrange,41.538889,85.396667
122,1842,INDIANA,WITMER LAKE,LAGRANGE,475,INDIANA,204,Indiana,Lagrange,41.534167,85.384722
123,1843,INDIANA,LAKE MAXINKUCKEE,MARSHALL,475,INDIANA,205,Indiana,Marshall,41.214167,86.411667
124,1844,INDIANA,LAKE TIPPECANOE,KOSCIUSKO,475,INDIANA,206,Indiana,Kosciusko,41.329444,85.779722
125,1845,INDIANA,DALLAS LAKE,LAGRANGE,475,INDIANA,207,Indiana,Lagrange,41.548056,85.416667
126,1846,INDIANA,OLIN LAKE,LAGRANGE,475,INDIANA,208,Indiana,Lagrange,41.563611,85.396111
127,1847,INDIANA,OLIVER LAKE,LAGRANGE,475,INDIANA,209,Indiana,Lagrange,41.571389,85.404167
128,1848,INDIANA,SYLVAN LAKE,NOBLE,475,INDIANA,210,Indiana,Noble,41.486389,85.355556
129,1849,INDIANA,HOVEY LAKE,POSEY,475,INDIANA,211,Indiana,Posey,37.820833,87.954444
130,1850,INDIANA,VERSAILLES LAKE,RIPLEY,475,INDIANA,212,Indiana,Ripley,39.081111,85.234722
131,1851,INDIANA,BASS LAKE,STARKE,475,INDIANA,213,Indiana,Starke,41.216667,86.601389
132,1852,INDIANA,CROOKED LAKE,STEUBEN,475,INDIANA,214,Indiana,Steuben,41.673056,85.041111
133,1853,INDIANA,JAMES LAKE,STEUBEN,475,INDIANA,215,Indiana,Steuben,41.692778,85.024444
134,1854,INDIANA,LONG LAKE,STEUBEN,475,INDIANA,216,Indiana,Steuben,41.5825,85.031944
135,1855,INDIANA,PIGEON LAKE,STEUBEN,475,INDIANA,217,Indiana,Steuben,41.638611,84.941667
136,1856,INDIANA,MARSH LAKE,STEUBEN,475,INDIANA,218,Indiana,Steuben,41.72,84.9025
137,1857,INDIANA,HAMILTON LAKE,STEUBEN,475,INDIANA,219,Indiana,Steuben,41.540278,84.918333
138,1901,IOWA,LAKE AHQUABI,MARREN,476,IOWA,220,Iowa,Warren,41.291667,93.592222
139,1902,IOWA,BIG CREEK RESERVOIR,POLK,476,IOWA,221,Iowa,Boone,42.09,94.048333
140,1903,IOWA,BLACK HAWK LAKE,SAC,476,IOWA,222,Iowa,Sac,42.3,95.0125
141,1904,IOWA,CLEAR LAKE,CERRO GORDO,476,IOWA,223,Iowa,Cerro Gordo,43.125,93.4
142,1906,IOWA,LOST ISLAND LAKE,CLAYoPALO ALTO,476,IOWA,225,Iowa,Palo Alto,43.145833,94.908333
143,1907,IOWA,LAKE MACBRIDE,JOHNSON,476,IOWA,226,Iowa,Johnson,41.793056,91.573056
144,1908,IOWA,PRAIRIE ROSE LAKE,SHELRY,476,IOWA,227,Iowa,Shelby,41.6,95.033333
145,1909,IOWA,RATHBUN RESERVOIR,APPANOOSELUCASM0NR0EHAYNE,476,IOWA,228,Iowa,Appanoose,40.825,92.8925
146,1910,IOWA,RED ROCK RESERVOIR,MARION,476,IOWA,229,Iowa,Marion,41.369167,92.975278
147,1911,IOWA,ROCK CREEK LAKE,NA,476,IOWA,537,Not Assigned,,41.740833,92.855556
148,1912,IOWA,SILVER LAKE,HORTH,476,IOWA,538,Not Assigned,,43.483333,92.416667
149,1913,IOWA,SPIRIT LAKE,DICKINSON,476,IOWA,230,Iowa,Dickinson,43.455833,95.102222
150,1914,IOWA,VIKING LAKE,MONTGOMERY,476,IOWA,231,Iowa,Montgomery,40.966667,95.033333
151,1915,IOWA,WEST OKOBOJI LAKE,DICKINSON,476,IOWA,232,Iowa,Dickinson,43.373611,95.159722
152,2001,KANSAS,CEDAR BLUFF RESERVOIR,TREGO,476,KANSAS,233,Kansas,Trego,38.783333,99.725
153,2002,KANSAS,COUNCIL GROVE RESERVOIR,MORRIS,476,KANSAS,234,Kansas,Morris,38.683333,96.5
154,2003,KANSAS,ELK CITY RESERVOIR,MONTGOMERY,476,KANSAS,235,Kansas,Montgomery,37.275,95.788333
155,2004,KANSAS,FALL RIVER RESERVOIR,GREENHOOD,476,KANSAS,236,Kansas,Greenwood,37.647222,96.061111
156,2005,KANSAS,JOHN REDMOND RESERVOIR,COFFEY LYON,476,KANSAS,237,Kansas,Coffey,38.243056,95.756389
157,2006,KANSAS,KANOPOLIS RESERVOIR,ELLSUORIH,476,KANSAS,238,Kansas,Ellsworth,38.610556,97.967222
158,2007,KANSAS,MARION RESERVOIR,MARION,476,KANSAS,239,Kansas,Marion,38.374167,97.079167
159,2008,KANSAS,MELVERN RESERVOIR,OSAGE,476,KANSAS,240,Kansas,Osage,38.510278,95.709444
160,2009,KANSAS,MILFORD RESERVOIR,CLAY GEARY,476,KANSAS,241,Kansas,Geary,39.077778,96.8975
161,2010,KANSAS,NORTON RESERVOIR,NORTON,476,KANSAS,242,Kansas,Norton,39.79,99.988889
162,2011,KANSAS,PERRY RESERVOIR,JEFFERSON,476,KANSAS,243,Kansas,Jefferson,39.114444,95.427778
163,2012,KANSAS,POMONA RESERVOIR,NA,476,KANSAS,244,Kansas,Osage,38.650556,95.563611
164,2013,KANSAS,TORONTO RESERVOIR,GREENHOOD HOODSON,476,KANSAS,245,Kansas,Woodson,37.747222,95.924722
165,2014,KANSAS,TUTTLE CREEK RESERVOIR,MARSHALL POTTARATOMIE RILEY,476,KANSAS,246,Kansas,Riley,39.255278,96.603056
166,2015,KANSAS,WILSON RESERVOIR,RUSSELL,476,KANSAS,247,Kansas,Russell,38.958333,98.498611
167,2101,KENTUCKY,CUMBERLAND LAKE,NA,475,KENTUCKY,248,Kentucky,Russell,36.865278,85.145833
168,2102,KENTUCKY,DALE HOLLOW RESERVOIR,CLINTON CUMBERLAND KY CLAY OVERTON PICKETT TN,475,KENTUCKY,665,Tennessee,Clay,36.539722,85.446944
169,2103,KENTUCKY,HERRINGTON LAKE,DOYLE GARRARD MERCER,475,KENTUCKY,249,Kentucky,Mercer,37.781389,84.709444
170,2104,KENTUCKY,KENTUCKY LAKE,CALLOMAY TRIGG ET AL KY1 HARDIN DECATUR ET AL TN,475,KENTUCKY,250,Kentucky,Livingston,37,88.258889
171,2105,KENTUCKY,BARREN RIVER RESERVOIR,ALLEN BARREN,475,KENTUCKY,251,Kentucky,Barren,36.891111,86.121389
172,2201,LOUISIANA,ANACOCO LAKE,VERNON,476,LOUISIANA,253,Louisiana,Vernon,31.095278,93.389167
173,2202,LOUISIANA,BRUIN LAKE,TENSAS,476,LOUISIANA,254,Louisiana,Tensas,31.977778,91.25
174,2203,LOUISIANA,LAKE HISTINEAU,BIENVILLEI ROSSIER HEBSTER,476,LOUISIANA,255,Louisiana,Bossier,32.330833,93.431944
175,2204,LOUISIANA,BLACK BAYOU RESERVOIR,rADDD,476,LOUISIANA,256,Louisiana,Caddo,32.8925,93.899444
176,2205,LOUISIANA,BUNDICK LAKE,REAUREGARO,476,LOUISIANA,257,Louisiana,Beauregard,30.727222,93.095278
177,2207,LOUISIANA,COCODRIE LAKE,CONCORUIA,476,LOUISIANA,258,Louisiana,Concordia,31.505556,91.727778
178,2208,LOUISIANA,COTILE RESERVOIR,RAPIDES,476,LOUISIANA,259,Louisiana,Rapides,31.325,92.733333
179,2209,LOUISIANA,LAKE CONCORDIA,CONCORDIA,476,LOUISIANA,260,Louisiana,Concordia,31.678611,91.488056
180,2210,LOUISIANA,CROSS LAKE,CADDO,476,LOUISIANA,261,Louisiana,Caddo,32.529167,93.916111
181,2211,LOUISIANA,BAYOU D'ARBONNE LAKE,UNION?¯ LINCOLN,476,LOUISIANA,262,Louisiana,Union,32.707778,92.342778
182,2212,LOUISIANA,FALSE RIVER LAKE,POINTE COUPEE,476,LOUISIANA,263,Louisiana,Pointe Coupee,31.611111,91.441667
183,2213,LOUISIANA,INDIAN CREEK RESERVOIR,RAPTOES,476,LOUISIANA,264,Louisiana,Rapides,31.279167,92.7625
184,2214,LOUISIANA,SALINE LAKE,LASALLE,476,LOUISIANA,265,Louisiana,La Salle,31.850556,92.946389
185,2215,LOUISIANA,TURKEY CREEK LAKE,FRANKLIN,476,LOUISIANA,266,Louisiana,Franklin,31.906944,91.765278
186,2216,LOUISIANA,LAKE VERRET,ASSUMPTION,476,LOUISIANA,267,Louisiana,Assumption,29.943889,91.189444
187,2217,LOUISIANA,LAKE VERNON,VERNON,476,LOUISIANA,268,Louisiana,Vernon,31.177222,93.357778
188,2219,LOUISIANA,BLACK LAKE,NATCHITOCHES RED RIVER,476,LOUISIANA,269,Louisiana,Caddo,31.966667,93.05
189,2220,LOUISIANA,COCODRIE LAKE,RAPIDES,476,LOUISIANA,270,Louisiana,Rapides,30.933333,92.48
190,2304,MAINE,ESTES LAKE,YORK,474,MAINE,272,Maine,York,43.423333,70.668333
191,2306,MAINE,LONG LAKE,CUMBERLAND,474,MAINE,273,Maine,Cumberland,43.971667,70.601667
192,2308,MAINE,MATTAWAMKEAG LAKE,AROOSTOOK,474,MAINE,274,Maine,Aroostook,45.9575,68.151667
193,2309,MAINE,MOOSEHEAD LAKE,PISCATAQUIS,474,MAINE,539,Not Assigned,,45.463333,69.596667
194,2310,MAINE,RANGELEY LAKE,FRANKLIN,474,MAINE,540,Not Assigned,,44.966667,70.65
195,2311,MAINE,SEBAGO LAKE,CUMBERLAND,474,MAINE,541,Not Assigned,,43.766667,70.523333
196,2312,MAINE,SEBASTICOOK LAKE,PENOBSCOT,474,MAINE,275,Maine,Penobscot,44.858333,69.216667
197,2313,MAINE,LONG LAKE,AROOSTOOK,474,MAINE,276,Maine,Aroostook,47.245,68.305
198,2314,MAINE,BAY OF NAPLES,CUMBERLAND,474,MAINE,542,Not Assigned,,43.966667,70.6
199,2402,MARYLAND,DEEP CREEK LAKE,GARRETT,475,MARYLAND,277,Maryland,Garrett,39.510556,79.389444
200,2403,MARYLAND,LIBERTY RESERVOIR,"CARROLL, BALTIMORE",475,MARYLAND,278,Maryland,Baltimore,39.380556,76.893333
201,2408,MARYLAND,LOCH RAVEN RESERVOIR,BALTIMORE,475,MARYLAND,279,Maryland,Baltimore,39.431944,76.543611
202,2409,MARYLAND,JOHNSON POND,WICOMICO,475,MARYLAND,280,Maryland,Wicomico,38.377222,75.601389
203,2502,MASSACHUSETTS,HAGER POND,MIDDLESEX,474,MASSACHUSETTS,543,Not Assigned,,42.35,71.488056
204,2503,MASSACHUSETTS,HARRIS POND,NA,474,MASSACHUSETTS,544,Not Assigned,,42.033333,71.505
205,2504,MASSACHUSETTS,MAYNARD IMPOUNDMENT,MIDDLESEX,474,MASSACHUSETTS,281,Massachusetts,Middlesex,42.426111,71.469722
206,2507,MASSACHUSETTS,WOODS POND,BERKSHIRE,474,MASSACHUSETTS,545,Not Assigned,,42.35,73.241667
207,2508,MASSACHUSETTS,MATFIELD IMPOUNDMENT,PLYMOUTH,474,MASSACHUSETTS,282,Massachusetts,Plymouth,41.995278,70.942222
208,2509,MASSACHUSETTS,ROCHDALE POND,HORCHESTER,474,MASSACHUSETTS,283,Massachusetts,Worcester,42.195833,71.904722
209,2511,MASSACHUSETTS,BILLERICA IMPOUNDMENT,MIDDLESEX,474,MASSACHUSETTS,546,Not Assigned,,42.591667,71.283333
210,2512,MASSACHUSETTS,NORTHBORO IMPOUNDMENT,MORCMESTER,474,MASSACHUSETTS,285,Massachusetts,Worcester,42.325,71.633333
211,2513,MASSACHUSETTS,HUDSON IMPOUNDMENT,MIDDLESEA NORCHESTER,474,MASSACHUSETTS,286,Massachusetts,Middlesex,42.408333,71.533333
212,2603,MICHIGAN,LAKE ALLEGAN,ALLEGAN,474,MICHIGAN,287,Michigan,Allegan,42.533333,85.866667
213,2606,MICHIGAN,BARTON LAKE,KALAMAZOO,474,MICHIGAN,288,Michigan,Kalamazoo,42.1,85.558333
214,2609,MICHIGAN,BELLEVILLE LAKE,MAYNE,474,MICHIGAN,289,Michigan,Wayne,42.208333,83.516667
215,2610,MICHIGAN,BETSIE LAKE,BENZIE,474,MICHIGAN,290,Michigan,Benzie,44.629167,86.235
216,2613,MICHIGAN,BRIGHTON LAKE,NA,474,MICHIGAN,291,Michigan,Livingston,42.525,83.791667
217,2617,MICHIGAN,LAKE CHARLEVOIX,NA,474,MICHIGAN,292,Michigan,Charlevoix,45.231667,85.033333
218,2618,MICHIGAN,LAKE CHEMUNG,LIVINGSTON,474,MICHIGAN,293,Michigan,Livingston,42.578056,83.836667
219,2621,MICHIGAN,CONSTANTINE RESERVOIR,ST JOSEPH,474,MICHIGAN,294,Michigan,St Joseph,41.841667,85.666667
220,2624,MICHIGAN,DEER LAKE,MARQUETTE,474,MICHIGAN,295,Michigan,Marquette,46.516667,87.666667
221,2629,MICHIGAN,FORD LAKE,WASHTENAW,474,MICHIGAN,297,Michigan,Washtenaw,42.225,83.608333
222,2631,MICHIGAN,FREMONT LAKE,NERAYGO,474,MICHIGAN,547,Not Assigned,,43.45,85.966667
223,2640,MICHIGAN,JORDAN LAKE,IONIA HARRY,474,MICHIGAN,298,Michigan,Barry,42.766667,85.145
224,2643,MICHIGAN,KENT LAKE,OAKLAND LIVINGSTON,474,MICHIGAN,299,Michigan,Oakland,42.5,83.616667
225,2648,MICHIGAN,MACATAWA LAKE,NA,474,MICHIGAN,300,Michigan,Ottawa,42.8,86.116667
226,2649,MICHIGAN,MANISTEE LAKE,MANISTEE,474,MICHIGAN,301,Michigan,Manistee,44.258333,86.316667
227,2659,MICHIGAN,MUSKEGON LAKE,MUSKEGON,474,MICHIGAN,302,Michigan,Muskegon,43.233333,86.316667
228,2665,MICHIGAN,PENTWATER LAKE,OCEANA,474,MICHIGAN,303,Michigan,Oceana,43.775361,86.433833
229,2669,MICHIGAN,PORTAGE LAKE,HOUGHTON,474,MICHIGAN,304,Michigan,Houghton,47.05,88.491667
230,2672,MICHIGAN,ROGERS POND,MECOSTA,474,MICHIGAN,306,Michigan,Mecosta,43.616667,85.483333
231,2673,MICHIGAN,ROSS RESERVOIR,GLAOVIN,474,MICHIGAN,307,Michigan,Gladwin,43.8,84.5
232,2674,MICHIGAN,SANFORD LAKE,MIDLAND,474,MICHIGAN,308,Michigan,Midland,43.683333,84.375
233,2683,MICHIGAN,THORNAPPLE LAKE,BARRY,474,MICHIGAN,310,Michigan,Barry,42.625,85.183333
234,2685,MICHIGAN,UNION LAKE,BRANCH,474,MICHIGAN,311,Michigan,Branch,42.05,85.2
235,2688,MICHIGAN,WHITE LAKE,MUSKEGON,474,MICHIGAN,313,Michigan,Muskegon,43.4,86.358333
236,2691,MICHIGAN,MONA LAKE,MUSKEGON,474,MICHIGAN,314,Michigan,Muskegon,43.183333,86.233333
237,2692,MICHIGAN,LONG LAKE,ST JOSEPH,474,MICHIGAN,315,Michigan,St Joseph,41.911944,85.346667
238,2693,MICHIGAN,ST LOUIS RESERVOIR,GRATIOT,474,MICHIGAN,316,Michigan,Gratiot,43.413333,84.611667
239,2694,MICHIGAN,CRYSTAL LAKE,NA,474,MICHIGAN,317,Michigan,Montcalm,43.258333,84.933333
240,2695,MICHIGAN,HIGGINS LAKE,ROSCOMMON,474,MICHIGAN,318,Michigan,Roscommon,44.491667,84.708333
241,2696,MICHIGAN,HOUGHTON LAKE,ROSCOMMON,474,MICHIGAN,319,Michigan,Roscommon,44.316667,84.75
242,2697,MICHIGAN,THOMPSON LAKE,LIVINGSTON,474,MICHIGAN,320,Michigan,Livingston,42.616667,83.916667
243,2698,MICHIGAN,PERE MARQUETTE,MASON,474,MICHIGAN,321,Michigan,Mason,43.941667,86.45
244,2699,MICHIGAN,STRAWBERRY LAKE,LIVINGSTONE,474,MICHIGAN,322,Michigan,Livingston,42.45,83.85
245,26A0,MICHIGAN,HOLLOWAY RESERVIOR,,474,MICHIGAN,323,Michigan,Genesee,43.121389,83.489167
246,26A1,MICHIGAN,CARO RESERVOIR,TUSCOLA,474,MICHIGAN,549,Not Assigned,,43.458333,83.408333
247,26A2,MICHIGAN,BOARDMAN HYDRO POND,GRAND TRAVERSE,474,MICHIGAN,324,Michigan,Grand Traverse,44.666667,85.416667
248,2702,MINNESOTA,ALBERT LEA LAKE,FREEBORN,474,MINNESOTA,326,Minnesota,Freeborn,43.645,93.3475
249,2704,MINNESOTA,BADGER LAKE,POLK,474,MINNESOTA,327,Minnesota,Polk,47.681944,96.007778
250,2705,MINNESOTA,BARTLETT LAKE,KOOCHICHING,474,MINNESOTA,328,Minnesota,Koochiching,47.879167,94.266667
251,2706,MINNESOTA,BEAR LAKE,FREEBORN,474,MINNESOTA,329,Minnesota,Freeborn,43.551667,93.501667
252,2708,MINNESOTA,BIG LAKE,STEARNS,474,MINNESOTA,330,Minnesota,Stearns,45.418611,94.572222
253,2709,MINNESOTA,BIG STONE,BIG STONE (MN); ROBERTS GRANT (SD),474,MINNESOTA,331,Minnesota,Big Stone,45.308333,96.456667
254,2710,MINNESOTA,BIRCH LAKE,CASS,474,MINNESOTA,332,Minnesota,Cass,46.933333,94.525
255,2711,MINNESOTA,BLACKDUCK LAKE,BELTRAMI,474,MINNESOTA,333,Minnesota,Beltrami,47.738889,94.629167
256,2712,MINNESOTA,BLACKHOOF LAKE,CROW WING,474,MINNESOTA,334,Minnesota,Crow Wing,46.471667,94.010556
257,2713,MINNESOTA,BUFFALO LAKE,WRIGHT,474,MINNESOTA,335,Minnesota,Wright,45.170833,93.88
258,2714,MINNESOTA,CARRIGAN LAKE,WRIGHT,474,MINNESOTA,336,Minnesota,Wright,45.058333,93.958333
259,2715,MINNESOTA,CASS LAKE,BELTRAMI CASS,474,MINNESOTA,337,Minnesota,Beltrami,47.4125,94.627778
260,2716,MINNESOTA,CLEARWATER LAKE,WRIGHT STEARNS,474,MINNESOTA,338,Minnesota,Wright,45.303333,94.115
261,2719,MINNESOTA,COKATO LAKE,WRIGHT,474,MINNESOTA,340,Minnesota,Wright,45.115833,94.171667
262,2720,MINNESOTA,CRANBERRY LAKE,CROW WING,474,MINNESOTA,341,Minnesota,Crow Wing,46.398611,93.775833
263,2725,MINNESOTA,ELBOW LAKE,ST LOUIS,474,MINNESOTA,344,Minnesota,St Louis,47.427778,92.621667
264,2728,MINNESOTA,EMBARRASS LAKE,ST LOUIS,474,MINNESOTA,550,Not Assigned,,47.531111,92.318889
265,2730,MINNESOTA,FALL LAKE,LAKE,474,MINNESOTA,346,Minnesota,Lake,47.936111,91.777222
266,2737,MINNESOTA,GULL LAKE,CASS CROW WING,474,MINNESOTA,348,Minnesota,Cass,46.478333,94.32
267,2739,MINNESOTA,HERON LAKE,JACKSON,474,MINNESOTA,349,Minnesota,Jackson,43.783333,95.283333
268,2746,MINNESOTA,LEECH LAKE,CASS,474,MINNESOTA,351,Minnesota,Cass,47.116667,94.583333
269,2747,MINNESOTA,LILY LAKE,BLUE EARTH,474,MINNESOTA,352,Minnesota,Blue Earth,44.116667,94.225
270,2748,MINNESOTA,LITTLE LAKE,GRANT,474,MINNESOTA,353,Minnesota,Grant,46.088333,95.809167
271,2750,MINNESOTA,MADISON LAKE,BLUE EARTH,474,MINNESOTA,355,Minnesota,Blue Earth,44.196667,93.8
272,2752,MINNESOTA,MALMEDAL LAKE,POPE,474,MINNESOTA,356,Minnesota,Pope,45.673611,95.527222
273,2756,MINNESOTA,MASHKENODE LAKE,ST LOUIS,474,MINNESOTA,357,Minnesota,St Louis,47.828333,92.597778
274,2757,MINNESOTA,MCQUADE LAKE,ST LOUIS,474,MINNESOTA,358,Minnesota,St Louis,47.425556,92.766389
275,2760,MINNESOTA,LAKE MINNETONKA,HENNEPIN,474,MINNESOTA,360,Minnesota,Hennepin,44.961667,93.51
276,2761,MINNESOTA,LAKE MINNEWASKA,POPE,474,MINNESOTA,361,Minnesota,Pope,45.635278,95.398889
277,2765,MINNESOTA,PELICAN LAKE,ST LOUIS,474,MINNESOTA,362,Minnesota,St Louis,48.059722,92.936111
278,2771,MINNESOTA,RABBIT LAKE,CROW WING,474,MINNESOTA,364,Minnesota,Crow Wing,46.528333,93.938333
279,2776,MINNESOTA,ST. LOUIS BAY,"ST LOUIS (MN); DOUGLAS, (WI)",474,MINNESOTA,365,Minnesota,St Louis,46.753333,92.118333
280,2782,MINNESOTA,SILVER LAKE,MCLEOD,474,MINNESOTA,370,Minnesota,Mcleod,44.898333,94.2
281,2783,MINNESOTA,SIX MILE LAKE,ST LOUIS,474,MINNESOTA,371,Minnesota,St Louis,47.448611,92.810278
282,2786,MINNESOTA,SUPERIOR BAY,ST LOUIS (MN; DOUGLAS (H1,474,MINNESOTA,373,Minnesota,St Louis,46.759167,92.091667
283,2788,MINNESOTA,SWAN LAKE,ITASCA,474,MINNESOTA,374,Minnesota,Itasca,47.324722,93.186667
284,2792,MINNESOTA,TRACE LAKE,TODD,474,MINNESOTA,375,Minnesota,Todd,45.831111,94.763333
285,2793,MINNESOTA,TROUT LAKE,ITASCA,474,MINNESOTA,376,Minnesota,Itasca,47.28,93.415833
286,27A1,MINNESOTA,LAKE WINONA,DOUGLAS,474,MINNESOTA,379,Minnesota,Douglas,45.875,95.403333
287,27A2,MINNESOTA,WOLF LAKE,BELTRAMI HUBBARD,474,MINNESOTA,380,Minnesota,Beltrami,47.425,94.675
288,27A3,MINNESOTA,WOODCOCK LAKE,KANDIYOHI,474,MINNESOTA,381,Minnesota,Kandiyohi,45.243333,94.949167
289,27A4,MINNESOTA,LAKE PEPIN,GOODHUE WABASHA (MN) PIERCE PEPIN (WI),474,MINNESOTA,382,Minnesota,Wabasha,44.425,92.148333
290,27A5,MINNESOTA,ZUMBRO LAKE,OLMSTED WABSHA,474,MINNESOTA,383,Minnesota,Olmsted,44.145833,92.450556
291,27A6,MINNESOTA,SPRING LAKE,DAKOTA WASHINGTON,474,MINNESOTA,384,Minnesota,Dakota,44.768056,92.961667
292,27A7,MINNESOTA,LAKE ST. CROIX,WASHINGTON,474,MINNESOTA,385,Minnesota,Washington,44.9,92.773611
293,27A8,MINNESOTA,BUDD LAKE,MARTIN,474,MINNESOTA,386,Minnesota,Martin,43.648611,94.474444
294,27A9,MINNESOTA,FOREST LAKE,WASHINGTON,474,MINNESOTA,387,Minnesota,Washington,45.283333,92.966667
295,27B0,MINNESOTA,WHITE BEAR LAKE,RAMSEY WASHINGTON,474,MINNESOTA,388,Minnesota,Washington,45.065278,92.974444
296,27B1,MINNESOTA,WAGONGA LAKE,KANDIYOHI,474,MINNESOTA,389,Minnesota,Kandiyohi,45.061111,94.9625
297,27B2,MINNESOTA,GREEN LAKE,KANDIYOHI,474,MINNESOTA,390,Minnesota,Kandiyohi,45.2625,94.928333
298,27B3,MINNESOTA,NEST LAKE,KANDIYOHI,474,MINNESOTA,391,Minnesota,Kandiyohi,45.26,94.959722
299,27B4,MINNESOTA,LAKE DARLING,DOUGLAS,474,MINNESOTA,392,Minnesota,Douglas,45.746667,95.402778
300,27B5,MINNESOTA,LAKE LE HOMME DIEU,DOUGLAS,474,MINNESOTA,393,Minnesota,Douglas,45.927778,95.365278
301,27B6,MINNESOTA,LAKE CALHOUN,HENNEPIN,474,MINNESOTA,394,Minnesota,Hennepin,44.938333,93.311667
302,27B7,MINNESOTA,WALLMARK,CHICAGO,474,MINNESOTA,395,Minnesota,Chisago,45.383333,92.883333
303,27B8,MINNESOTA,LOST LAKE,ST LOUIS,474,MINNESOTA,396,Minnesota,St Louis,47.4625,92.4375
304,27B9,MINNESOTA,LAKE CARLOS,DOUGLAS,474,MINNESOTA,397,Minnesota,Douglas,45.935,95.376389
305,27C1,MINNESOTA,LAKE BEMIDJI,BELTRAMI,474,MINNESOTA,,Minnesota,Beltrami,47.477778,94.861667
306,27C0,MINNESOTA,LAKE ANDROSIA,BELTRAMI,474,MINNESOTA,398,Minnesota,Beltrami,47.466667,94.65
307,27C2,MINNESOTA,MUD LAKE,ITASCA,474,MINNESOTA,400,Minnesota,Itasca,47.316111,93.286111
308,2801,MISSISSIPPI,ARKABUTLA RESERVOIR,DESOTO TATE,475,MISSISSIPPI,403,Mississippi,De Soto,34.729444,90.082222
309,2802,MISSISSIPPI,ENID LAKE,YALOBUSHA,475,MISSISSIPPI,404,Mississippi,Yalobusha,34.147778,89.789444
310,2804,MISSISSIPPI,ROSS BARNETT RESERVOIR,JACKSONOHADISONQ RANKIN,475,MISSISSIPPI,405,Mississippi,Rankin,32.392222,90.018333
311,2805,MISSISSIPPI,SARDIS LAKE,LAFAYETTE PANOLA,475,MISSISSIPPI,406,Mississippi,Panola,34.408333,89.793056
312,2806,MISSISSIPPI,GRENADA LAKE,CALMOUN GRENADA YALODUSMA,475,MISSISSIPPI,407,Mississippi,Grenada,33.809722,89.751667
313,2901,MISSOURI,CLEARWATER LAKE,REYNOLDS uAYNE,476,MISSOURI,409,Missouri,Reynolds,37.135,90.775
314,2902,MISSOURI,POMME DE TERRE RESERVOIR,POLK HICKORY,476,MISSOURI,410,Missouri,Hickory,37.897222,93.313889
315,2903,MISSOURI,STOCKTON RESERVOIR,NA,476,MISSOURI,411,Missouri,Cedar,37.689722,93.765
316,2904,MISSOURI,LAKE TANEYCOMO,TANEY,476,MISSOURI,412,Missouri,Taney,36.657778,93.124722
317,2905,MISSOURI,THOMAS HILL RESERVOIR,MACON RANDOLPH,476,MISSOURI,413,Missouri,Randolph,39.524722,92.636667
318,2906,MISSOURI,LAKE WAPPAPELLO,WAYNE 9 BUTLER,476,MISSOURI,414,Missouri,Wayne,37.928889,90.286667
319,3001,MONTANA,CANYON FERRY RESERVOIR,BROADHATERo LEWIS s CLARK,477,MONTANA,415,Montana,Broadwater,46.371667,111.518333
320,3002,MONTANA,CLARK CANYON RESERVOIR,BEAVERHEAD,477,MONTANA,416,Montana,Beaverhead,44.995833,112.860556
321,3003,MONTANA,FLATHEAD LAKE,ELATHEAD LAKE,477,MONTANA,417,Montana,Lake,47.676389,114.231111
322,3004,MONTANA,GEORGETOWN LAKE,DEER LODGE GRANITE,477,MONTANA,418,Montana,Deer Lodge,46.2125,113.263889
323,3005,MONTANA,HEBGEN LAKE,GALLATIN,477,MONTANA,419,Montana,Gallatin,44.863333,111.333333
324,3006,MONTANA,KOOCANUSA RESERVOIR,"LINCOLN MT, BRITISH COLUMBIA CAN",477,MONTANA,420,Montana,Lincoln,48.874167,115.226944
325,3007,MONTANA,MARY RONAN LAKE,LAKE,477,MONTANA,421,Montana,Lake,47.9375,114.395833
326,3008,MONTANA,LAKE MCDONALD,FLATHEAD,477,MONTANA,422,Montana,Flathead,48.542222,113.975833
327,3009,MONTANA,NELSON RESERVOIR,PHILLIPS,477,MONTANA,423,Montana,Phillips,48.53,107.532778
328,3010,MONTANA,SEELEY LAKE,MISSOULA,477,MONTANA,424,Montana,Missoula,47.176389,113.488889
329,3011,MONTANA,SWAN LAKE,LAKE,477,MONTANA,425,Montana,Flathead,48.005556,113.960556
330,3012,MONTANA,TALLY LAKE,FLATHEAD,477,MONTANA,426,Montana,Flathead,48.412778,114.543056
331,3013,MONTANA,TIBER RESERVOIR,LI8ERTY TOOLE,477,MONTANA,427,Montana,Toole,48.355278,111.546389
332,3014,MONTANA,TONGUE RIVER RESERVOIR,BIG HORN,477,MONTANA,428,Montana,Big Horn,45.127778,106.770556
333,3016,MONTANA,WHITEFISH LAKE,FLATHEAD,477,MONTANA,429,Montana,Flathead,48.477778,114.4125
334,3101,NEBRASKA,BRANCHED OAK RESERVOIR,LANCASTER,476,NEBRASKA,431,Nebraska,Lancaster,40.970556,96.854444
335,3102,NEBRASKA,HARLAN COUNTY RESERVOIR,HARLAN,476,NEBRASKA,432,Nebraska,Harlan,40.0575,99.21
336,3103,NEBRASKA,HARRY D. STRUNK RESERVOIR,FRONTIER,476,NEBRASKA,433,Nebraska,Frontier,40.38,100.216667
337,3104,NEBRASKA,HUGH BUTLER RESERVOIR,FRONTIFRcRED HILLOH,476,NEBRASKA,434,Nebraska,Frontier,40.356389,100.670278
338,3105,NEBRASKA,JOHNSON RESERVOIR,DARSONGOSPER,476,NEBRASKA,435,Nebraska,Dawson,40.683333,99.916667
339,3106,NEBRASKA,C.W. MCCONAUGHY RESERVOIR,KEITH,476,NEBRASKA,436,Nebraska,Keith,41.2125,101.680556
340,3107,NEBRASKA,PAWNEE RESERVOIR,LANCASTER,476,NEBRASKA,437,Nebraska,Lancaster,40.839444,96.867222
341,3108,NEBRASKA,SHERMAN RESERVOIR,SHERHAN,476,NEBRASKA,438,Nebraska,Sherman,41.325,98.9
342,3110,NEBRASKA,SWANSON RESERVOIR,HITCHCOCK,476,NEBRASKA,439,Nebraska,Hitchcock,40.171111,101.065833
343,3201,NEVADA,LAKE MEAD,CLARK NY; MOHAVE Az,477,NEVADA,23,Arizona,Mohave,36.127222,113.984722
344,3202,NEVADA,LAHONTAN RESERVOIR,CHURCHILL_LYON,477,NEVADA,440,Nevada,Churchill,39.456944,119.068333
345,3204,NEVADA,RYE PATCH RESERVOIR,PERSHING,477,NEVADA,441,Nevada,Pershing,40.588889,118.313333
346,3205,NEVADA,LAKE TAHOE,CARSON CITY DOUGLAS RASMOE Nv; EL OORADO PLACER CA,477,NEVADA,63,California,El Dorado,38.992222,120.058333
347,3206,NEVADA,TOPAZ LAKE,DOUGLAS Nv; MONO CA,477,NEVADA,442,Nevada,Douglas,38.683889,119.532778
348,3207,NEVADA,UPPER PAHRANAGAT,LINCOLN,477,NEVADA,443,Nevada,Lincoln,37.309167,115.13
349,3208,NEVADA,WASHOE LAKE,WASHOE,477,NEVADA,444,Nevada,Washoe,39.286944,119.803611
350,3209,NEVADA,WILD HORSE RESERVOIR,ELKO,477,NEVADA,445,Nevada,Elko,41.683889,115.804444
351,3210,NEVADA,WILSON RESERVOIR,ELKO,477,NEVADA,446,Nevada,Elko,41.666111,116.335556
352,3211,NEVADA,WALKER LAKE,MINERAL,477,NEVADA,447,Nevada,Mineral,38.595833,118.683333
353,3302,NEW HAMPSHIRE,POWDER MILL POND,HILLSBOROUGH,474,NEW HAMPSHIRE,448,New Hampshire,Hillsborough,42.95,71.933333
354,3303,NEW HAMPSHIRE,LAKE WINNIPESAUKEE,"BELKNAP, CARROL",474,NEW HAMPSHIRE,449,New Hampshire,Belknap,43.546667,71.468333
355,3305,NEW HAMPSHIRE,KELLYS FALLS POND,HILLSBOROUGH,474,NEW HAMPSHIRE,450,New Hampshire,Hillsborough,43.016667,71.571667
356,3306,NEW HAMPSHIRE,GLEN LAKE,HILLSBOROUGH,474,NEW HAMPSHIRE,451,New Hampshire,Hillsborough,43.000833,71.502222
357,3402,NEW JERSEY,BUDD LAKE,MORRIS,475,NEW JERSEY,452,New Jersey,Morris,40.870278,74.743056
358,3403,NEW JERSEY,GREENWOOD LAKE,PASSAIC NU ORANGEo NY,475,NEW JERSEY,453,New Jersey,Passaic,41.2175,74.300833
359,3406,NEW JERSEY,ORADELL RESERVOIR,BERGEN,475,NEW JERSEY,454,New Jersey,Bergen,40.957222,74.029444
360,3409,NEW JERSEY,PINECLIFF LAKE,PASSAIC,475,NEW JERSEY,455,New Jersey,Passaic,41.137222,74.37
361,3410,NEW JERSEY,POMPTON LAKES,PASSAIC,475,NEW JERSEY,456,New Jersey,Passaic,40.995833,74.275833
362,3412,NEW JERSEY,DUHERNAL LAKE,MIDDLESEx,475,NEW JERSEY,457,New Jersey,Middlesex,40.405,74.369444
363,3413,NEW JERSEY,FARRINGTON LAKE,MIDDLESEX,475,NEW JERSEY,458,New Jersey,Middlesex,40.448333,74.454167
364,3415,NEW JERSEY,LAKE HOPATCONG,MORRIS SUSSEx,475,NEW JERSEY,459,New Jersey,Sussex,40.921667,74.655
365,3417,NEW JERSEY,LAKE MUSCONETCONG,MORRIS SUSSEx,475,NEW JERSEY,460,New Jersey,Sussex,40.9075,74.693889
366,3419,NEW JERSEY,PAULINSKILL LAKE,SUSSEx,475,NEW JERSEY,461,New Jersey,Sussex,41.053333,74.824444
367,3420,NEW JERSEY,SPRUCE RUN RESERVOIR,HUNTEROON,475,NEW JERSEY,462,New Jersey,Hunterdon,40.646667,74.917222
368,3422,NEW JERSEY,UNION LAKE,CUMBERLAND,475,NEW JERSEY,463,New Jersey,Cumberland,39.404722,75.056389
369,3423,NEW JERSEY,WANAQUE RESERVOIR,PASSAIC,475,NEW JERSEY,464,New Jersey,Passaic,41.045833,74.298056
370,3501,NEW MEXICO,ALAMOGORDO RESERVOIR,DE RACA GUADALUPE,477,NEW MEXICO,465,New Mexico,De Baca,34.608333,104.373611
371,3502,NEW MEXICO,BLUEWATER LAKE,MCKINLEY VALENCIA,477,NEW MEXICO,466,New Mexico,Valencia,35.2925,108.111944
372,3503,NEW MEXICO,CONCHAS RESERVOIR,SAN MIGUEL,477,NEW MEXICO,467,New Mexico,San Miguel,35.4025,104.191667
373,3504,NEW MEXICO,EAGLE NEST LAKE,COLFAX,477,NEW MEXICO,468,New Mexico,Colfax,36.532778,105.236667
374,3505,NEW MEXICO,ELEPHANT BUTTE RESERVOIR,SIERRA SOCORRO,477,NEW MEXICO,469,New Mexico,Sierra,33.154722,107.191111
375,3506,NEW MEXICO,EL VADO RESERVOIR,RI0 ARRIBA,477,NEW MEXICO,470,New Mexico,Rio Arriba,36.595278,106.733333
376,3507,NEW MEXICO,LAKE MCMILLAN,EDDY,477,NEW MEXICO,471,New Mexico,Eddy,32.5975,104.346389
377,3509,NEW MEXICO,UTE RESERVOIR,OUAY,477,NEW MEXICO,472,New Mexico,Quay,35.343056,103.446111
378,3602,NEW YORK,BLACK LAKE,ST LAWRENCE,474,NEW YORK,473,New York,St Lawrence,44.484722,75.623611
379,3604,NEW YORK,CANADIAGUA,"ONTARIO, YATES",474,NEW YORK,475,New York,Ontario,42.862222,77.268056
380,3605,NEW YORK,CANNONSVILLE RESERVOIR,DELAWARE,474,NEW YORK,476,New York,Delaware,42.091667,75.325
381,3606,NEW YORK,CARRY FALLS RESERVOIR,ST LAWRENCE,474,NEW YORK,477,New York,St Lawrence,44.416667,74.666667
382,3607,NEW YORK,CASSADAGA LAKE,CHAUTAUOUA,474,NEW YORK,478,New York,Chautauqua,42.345278,79.316667
383,3608,NEW YORK,CAYUGA LAKE,CAYUGAQSENECA9 TOMPKINS,474,NEW YORK,479,New York,Tompkins,42.470278,76.525278
384,3610,NEW YORK,CHAUTAUQUA,CHAUTAUOUA,474,NEW YORK,480,New York,Chautauqua,42.107222,79.296389
385,3611,NEW YORK,CROSS LAKE,CAYUGAONONDAGA,474,NEW YORK,481,New York,Onondaga,42.470278,76.525278
386,3613,NEW YORK,GOODYEAR LAKE,OTSEGO,474,NEW YORK,482,New York,Otsego,42.416667,74.916667
387,3615,NEW YORK,LAKE HUNTINGTON,SULLIVAN,474,NEW YORK,483,New York,Sullivan,41.682778,74.990833
388,3617,NEW YORK,KEUKA LAKE,YATES STEUBEN,474,NEW YORK,485,New York,Yates,42.625,77.083333
389,3619,NEW YORK,LONG LAKE,HAMILTON,474,NEW YORK,486,New York,Hamilton,43.97,74.433333
390,3625,NEW YORK,OTTER LAKE,CAYUGA,474,NEW YORK,489,New York,Cayuga,43.14,76.533889
391,3627,NEW YORK,OWASCO,CAYUGA,474,NEW YORK,490,New York,Cayuga,42.780556,76.482222
392,3630,NEW YORK,ROUND LAKE,SARATOGA,474,NEW YORK,492,New York,Saratoga,42.934167,73.783333
393,3632,NEW YORK,SACANDAGA RESERVOIR,FULTON SARATOGA,474,NEW YORK,494,New York,Fulton,43.15,74.15
394,3633,NEW YORK,SARATOGA LAKE,SARATOGA,474,NEW YORK,495,New York,Saratoga,43.045833,73.725556
395,3634,NEW YORK,SCHROON,"ESSEX, WARREN",474,NEW YORK,496,New York,Essex,43.763333,73.763333
396,3635,NEW YORK,SENECA LAKE,SCHUYLER,474,NEW YORK,497,New York,Seneca,42.791667,76.955556
397,3636,NEW YORK,SWAN LAKE,SULLIVAN,474,NEW YORK,555,Not Assigned,,41.761111,74.802778
398,3637,NEW YORK,SWINGING BRIDGE RESERVOIR,SULLIVAN,474,NEW YORK,498,New York,Sullivan,41.589167,74.777778
399,3639,NEW YORK,CONESUS LAKE,LIVINGSTON,474,NEW YORK,499,New York,Livingston,42.666667,77.833333
400,3640,NEW YORK,LOWER ST. REGIS,FRANKLIN,474,NEW YORK,500,New York,Franklin,44.416667,74.333333
401,3641,PENNSYLVANIA,ALLEGHENY RESERVOIR,McKEAN,475,PENNSYLVANIA,501,New York,Cattaraugus,42.083333,78.916667
402,3701,NORTH CAROLINA,BADIN LAKE,MONTGOMERY STANLY,475,NORTH CAROLINA,503,North Carolina,Stanly,35.422222,80.093056
403,3702,NORTH CAROLINA,BLEWETT FALLS LAKE,ANSON RICHMOND,475,NORTH CAROLINA,504,North Carolina,Richmond,35.075,79.896111
404,3704,NORTH CAROLINA,FONTANA LAKE,SRAIN GRAHAM,475,NORTH CAROLINA,505,North Carolina,Swain,35.453611,83.804444
405,3705,NORTH CAROLINA,HICKORY LAKE,ALEXANDER CALDRELL CATAUDA,475,NORTH CAROLINA,506,North Carolina,Catawba,35.783333,81.354167
406,3706,NORTH CAROLINA,HIGH ROCK LAKE,"DAVIDSON, ROWAN",475,NORTH CAROLINA,507,North Carolina,Davidson,35.601667,80.235278
407,3707,NORTH CAROLINA,HIWASSEE LAKE,CHEROKEE,475,NORTH CAROLINA,508,North Carolina,Cherokee,35.151667,84.177222
408,3708,NORTH CAROLINA,LAKE JAMES,BURKE MCDORELL,475,NORTH CAROLINA,509,North Carolina,Mcdowell,35.733889,81.891944
409,3709,NORTH CAROLINA,LAKE JUNALUSKA,HAYHOOD,475,NORTH CAROLINA,510,North Carolina,Haywood,35.525833,82.966111
410,3710,NORTH CAROLINA,LOOKOUT SHOALS LAKE,"CATAWBA, ALEXANDER, IREDELL",475,NORTH CAROLINA,511,North Carolina,Catawba,35.795833,81.095833
411,3711,NORTH CAROLINA,MOUNTAIN ISLAND LAKE,GASTON HECKLENBURG,475,NORTH CAROLINA,512,North Carolina,Gaston,35.336667,80.986111
412,3713,NORTH CAROLINA,LAKE NORMAN,CATARBA IRADELL LINCOLN MECKLENBURG,475,NORTH CAROLINA,513,North Carolina,Mecklenburg,35.438889,80.95
413,3715,NORTH CAROLINA,RHODHISS LAKE,BURKE CALDRELL,475,NORTH CAROLINA,514,North Carolina,Burke,35.775556,81.625
414,3716,NORTH CAROLINA,SANTEETLAH LAKE,GRAHAM,475,NORTH CAROLINA,515,North Carolina,Graham,35.375833,83.876111
415,3717,NORTH CAROLINA,LAKE TILLERY,MONTGOMERY STANLY,475,NORTH CAROLINA,516,North Carolina,Stanly,35.210556,80.07
416,3718,NORTH CAROLINA,WATERVILLE LAKE,HAYHOOD,475,NORTH CAROLINA,517,North Carolina,Haywood,35.775,83.1
417,3719,NORTH CAROLINA,WACCAMAW LAKE,COLUMBUS,475,NORTH CAROLINA,518,North Carolina,Columbus,34.303056,78.524444
418,3801,NORTH DAKOTA,LAKE ASHTABULA,0ARNE5ORIGGS,476,NORTH DAKOTA,521,North Dakota,Barnes,47.036667,98.078889
419,3802,NORTH DAKOTA,AUDUBON LAKE,MCLEAN,476,NORTH DAKOTA,522,North Dakota,Mclean,47.583333,101.133333
420,3803,NORTH DAKOTA,BRUSH LAKE,MCLEAN,476,NORTH DAKOTA,523,North Dakota,Mclean,47.556944,100.7125
421,3804,NORTH DAKOTA,LAKE DARLING,RENVILLEoHARD,476,NORTH DAKOTA,524,North Dakota,Ward,48.458889,101.587222
422,3805,NORTH DAKOTA,DEVILS LAKE,BENSONoRAHSEY,476,NORTH DAKOTA,525,North Dakota,Ramsey,48.031111,98.915833
423,3806,NORTH DAKOTA,JAMESTOWN RESERVOIR,NA,476,NORTH DAKOTA,526,North Dakota,Stutsman,46.931667,98.706667
424,3807,NORTH DAKOTA,LAKE LAMOURE,LAMOURE,476,NORTH DAKOTA,527,North Dakota,La Moure,46.297778,98.266944
425,3808,NORTH DAKOTA,MATEJCEK LAKE,UALSH,476,NORTH DAKOTA,528,North Dakota,Walsh,48.224444,97.95
426,3809,NORTH DAKOTA,LAKE METIGOSHE,BOITINEAU,476,NORTH DAKOTA,529,North Dakota,Bottineau,48.996389,100.356944
427,3811,NORTH DAKOTA,PELICAN LAKE,ROTIINEAU,476,NORTH DAKOTA,530,North Dakota,Bottineau,48.944722,100.267778
428,3812,NORTH DAKOTA,LAKE SAKAKAWEA,DUNNHCNENzIEHCLEANHERCERMOUNTRAILHILLIAHS,476,NORTH DAKOTA,531,North Dakota,Mercer,47.504167,101.433333
429,3813,NORTH DAKOTA,SPIRITWOOD LAKE,STUTSMAN,476,NORTH DAKOTA,532,North Dakota,Stutsman,47.076389,98.595
430,3814,NORTH DAKOTA,SWEET BRIAR LAKE,MORTON,476,NORTH DAKOTA,533,North Dakota,Morton,46.864444,101.26
431,3815,NORTH DAKOTA,WHITMAN LAKE,NELSONHALSH,476,NORTH DAKOTA,534,North Dakota,Nelson,48.185,98.075
432,3901,OHIO,BEACH CITY RESERVOIR,STARK TUSCARAWAS,475,OHIO,568,Ohio,Tuscarawas,40.635556,81.56
433,3902,OHIO,BUCKEYE LAKE,FAIRFIELD LICKING PERRY,475,OHIO,569,Ohio,Fairfield,39.903611,82.519444
434,3905,OHIO,CHARLES MILL RESERVOIR,ASHLAND RICHLAND,475,OHIO,570,Ohio,Richland,40.777222,82.391667
435,3906,OHIO,DEER CREEK RESERVOIR,FAYETTE PICKAWAY,475,OHIO,571,Ohio,Pickaway,39.622222,83.217222
436,3907,OHIO,DELAWARE RESERVOIR,DELAWARE,475,OHIO,572,Ohio,Delaware,40.360556,83.068889
437,3908,OHIO,DILLON RESERVOIR,MUSKINGUM,475,OHIO,573,Ohio,Muskingum,39.993889,82.083889
438,3912,OHIO,LAKE GRANT,BROWN,475,OHIO,574,Ohio,Brown,39.014444,83.93
439,3914,OHIO,HOOVER RESERVOIR,DELAWARE FRANKLIN,475,OHIO,575,Ohio,Franklin,40.109444,82.884444
440,3915,OHIO,INDIAN LAKE,LOGAN,475,OHIO,576,Ohio,Logan,40.470556,83.876389
441,3917,OHIO,LAKE LORAMIE,SHELBY AUGLAIZE,475,OHIO,577,Ohio,Shelby,40.364722,84.360278
442,3921,OHIO,MOSQUITO CREEK RESERVOIR,TRUMBULL,475,OHIO,578,Ohio,Trumbull,41.390833,80.75
443,3924,OHIO,PLEASANT HILL RESERVOIR,ASHLAND RICHLAND,475,OHIO,579,Ohio,Richland,40.640833,82.3575
444,3927,OHIO,GRAND LAKE OF ST. MARY'S,AUGLAIZE MERCER,475,OHIO,580,Ohio,Mercer,40.535278,84.569722
445,3928,OHIO,ATWOOD RESERVOIR,CARROL TUSCAHAWAS,475,OHIO,581,Ohio,Tuscarawas,40.529722,81.274444
446,3929,OHIO,BERLIN RESERVOIR,MAHONING PORTAGE STARK,475,OHIO,582,Ohio,Portage,41.043611,81.004444
447,3930,OHIO,HOLIDAY LAKE,HURON,475,OHIO,556,Not Assigned,,41.102778,82.726667
448,3931,OHIO,O'SHAUGHNESSY RESERVOIR,DELAWARE,475,OHIO,583,Ohio,Delaware,40.245,83.146389
449,3932,OHIO,ROCKY FORK RESERVOIR,HIGHLAND,475,OHIO,584,Ohio,Highland,39.1875,83.441944
450,3933,OHIO,LAKE SHAWNEE,GREENE,475,OHIO,585,Ohio,Greene,39.651389,83.768611
451,3934,OHIO,TAPPAN RESERVOIR,HARRISON,475,OHIO,586,Ohio,Harrison,40.355556,81.223611
452,4001,OKLAHOMA,ALTUS RESERVOIR,GREER KIOMA,476,OKLAHOMA,557,Not Assigned,,34.8875,99.291667
453,4002,OKLAHOMA,ARBUCKLE LAKE,MURRAY,476,OKLAHOMA,558,Not Assigned,,34.425833,96.999167
454,4003,OKLAHOMA,LAKE ELSWORTH,CADDO COMANCHE,476,OKLAHOMA,587,Oklahoma,Comanche,34.800833,98.355
455,4004,OKLAHOMA,LAKE EUFAULA,HASKELL MCINTOSH OKMULGEEo PITTSBURG,476,OKLAHOMA,588,Oklahoma,Mcintosh,35.307778,95.359444
456,4005,OKLAHOMA,FORT COBB RESERVOIR,NA,476,OKLAHOMA,589,Oklahoma,Caddo,35.165278,98.455556
457,4006,OKLAHOMA,FORT SUPPLY RESERVOIR,MOODuARO,476,OKLAHOMA,590,Oklahoma,Woodward,36.55,99.569444
458,4007,OKLAHOMA,FOSS RESERVOIR,CUSTER,476,OKLAHOMA,591,Oklahoma,Custer,35.541111,99.187222
459,4008,OKLAHOMA,LAKE FRANCES,AOAIR,476,OKLAHOMA,592,Oklahoma,Adair,36.125,94.515
460,4009,OKLAHOMA,GRAND LAKE OF THE CHEROKEES,HAYES DELAWARE CRAIG OTTONA,476,OKLAHOMA,593,Oklahoma,Mayes,36.475,95.035
461,401,ARIZONA,BIG LAKE,APACHE,477,ARIZONA,12,Arizona,Apache,33.888333,109.414722
462,4010,OKLAHOMA,LAKE HEFNER,OKLAHOMA,476,OKLAHOMA,594,Oklahoma,Oklahoma,35.570556,97.5925
463,4011,OKLAHOMA,KEYSTONE RESERVOIR,TULSA OSAGEO CREEK PAUNEE,476,OKLAHOMA,595,Oklahoma,Creek,36.133333,96.333333
464,4012,OKLAHOMA,OOLOGAH RESERVOIR,NONATA ROGERS,476,OKLAHOMA,596,Oklahoma,Rogers,36.423056,95.678056
465,4013,OKLAHOMA,TENKILLER FERRY RESERVOIR,CHEROKEE SEOUOYAR,476,OKLAHOMA,597,Oklahoma,Sequoyah,35.597222,95.038889
466,4014,OKLAHOMA,LAKE THUNDERBIRD,CLEVELAND,476,OKLAHOMA,598,Oklahoma,Cleveland,35.2225,97.22
467,4015,OKLAHOMA,WISTER RESERVOIR,LEFLORE,476,OKLAHOMA,599,Oklahoma,Le Flore,34.9375,94.719444
468,402,ARIZONA,FOOLS HOLLOW LAKE,NAVAJO,477,ARIZONA,13,Arizona,Navajo,34.276944,110.075556
469,403,ARIZONA,LAKE HAVASU,MOHAVE Azz SAN 8ERNADINO CA,477,ARIZONA,14,Arizona,Yuma,34.300278,114.1375
470,404,ARIZONA,LUNA LAKE,APACHE,477,ARIZONA,15,Arizona,Apache,33.829167,109.083333
471,405,ARIZONA,LYMAN LAKE,APACHE,477,ARIZONA,16,Arizona,Apache,34.373056,109.379167
472,406,ARIZONA,LAKE MOHAVE,MOHAVE Az; CLARK Nv,477,ARIZONA,17,Arizona,Mohave,35.201389,114.571667
473,407,ARIZONA,LAKE PLEASANT,MARICOPA YAvAPAI,477,ARIZONA,18,Arizona,Maricopa,33.856944,112.270833
474,408,ARIZONA,LAKE POWELL,COCONINO A2; GARFIELD KANE SAN JUAN UT,477,ARIZONA,19,Arizona,Coconino,36.979167,111.384722
475,409,ARIZONA,RAINBOW LAKE,NAVAJO,477,ARIZONA,20,Arizona,Navajo,34.156111,109.9825
476,410,ARIZONA,THEODORE ROOSEVELT LAKE,GILA,477,ARIZONA,21,Arizona,Gila,33.668333,111.064167
477,4101,OREGON,BROWNLEE RESERVOIR,"RAKER OR, MASMINGTON ID",477,OREGON,601,Oregon,Baker,44.768056,117.058333
478,4102,OREGON,DIAMOND LAKE,DOUGLAS,477,OREGON,602,Oregon,Douglas,43.143056,122.153333
479,4103,OREGON,HELLS CANYON RESERVOIR,"BAKER NALLONA 0R, ADAMS IDAHO ID",477,OREGON,603,Oregon,Wallowa,45.2375,116.702222
480,4104,OREGON,HILLS CREEK RESERVOIR,LANE,477,OREGON,604,Oregon,Lane,43.706389,122.422222
481,4105,OREGON,LAKE OWYHEE,HALHEUR,477,OREGON,605,Oregon,Malheur,43.305833,117.420278
482,4106,OREGON,OXBOW RESERVOIR,BAKER ,477,OREGON,606,Oregon,Baker,44.968611,116.833889
483,4107,OREGON,SUTTLE LAKE,JEFFERSON,477,OREGON,607,Oregon,Jefferson,44.422222,121.738889
484,4108,OREGON,WALDO LAKE,LANE,477,OREGON,608,Oregon,Lane,43.696389,122.054167
485,411,ARIZONA,SAN CARLOS RESERVOIR,GILA GRAHAM PINAL,477,ARIZONA,22,Arizona,Gila,33.175833,110.527222
486,4201,PENNSYLVANIA,BLANCHARD RESERVOIR,CENTRE,475,PENNSYLVANIA,609,Pennsylvania,Centre,41.045556,77.609722
487,4204,PENNSYLVANIA,CONNEAUT LAKE,CRAWFORD,475,PENNSYLVANIA,610,Pennsylvania,Crawford,41.627222,80.306667
488,4207,PENNSYLVANIA,GREENLANE RESERVOIR,MONTGOMERY,475,PENNSYLVANIA,611,Pennsylvania,Montgomery,40.341667,75.480556
489,4213,PENNSYLVANIA,PYMATUNING RESERVOIR,CRAWFORD ASHTABULA 0H,475,PENNSYLVANIA,612,Pennsylvania,Crawford,41.629167,80.439444
490,4216,PENNSYLVANIA,SHENANGO RIVER RESERVOIR,MERCER,475,PENNSYLVANIA,613,Pennsylvania,Mercer,41.286667,80.429444
491,4219,PENNSYLVANIA,BEAVER RUN RESERVOIR,WESTMORELAND,475,PENNSYLVANIA,614,Pennsylvania,Westmoreland,40.510278,79.553333
492,4220,PENNSYLVANIA,BELTZVILLE LAKE,CARBON,475,PENNSYLVANIA,615,Pennsylvania,Carbon,40.851389,75.635
493,4221,PENNSYLVANIA,LAKE CANADOHTA,CRAWFORD,475,PENNSYLVANIA,616,Pennsylvania,Crawford,41.808889,79.839444
494,4222,PENNSYLVANIA,HARVEY'S LAKE,LUZERNE,475,PENNSYLVANIA,617,Pennsylvania,Luzerne,41.355,76.037222
495,4223,PENNSYLVANIA,INDIAN LAKE,SOMERSET,475,PENNSYLVANIA,618,Pennsylvania,Somerset,40.027778,78.873056
496,4224,PENNSYLVANIA,LAKE NAOMI,MONROE,475,PENNSYLVANIA,619,Pennsylvania,Monroe,41.109722,75.46
497,4225,PENNSYLVANIA,LAKE ONTELAUNEE,BERKS,475,PENNSYLVANIA,620,Pennsylvania,Berks,40.445833,75.934722
498,4226,PENNSYLVANIA,CONEWAGO LAKE,YORK,475,PENNSYLVANIA,621,Pennsylvania,York,40.090278,76.873333
499,4227,PENNSYLVANIA,POCONO LAKE,MONROE,475,PENNSYLVANIA,622,Pennsylvania,Monroe,41.097222,75.537778
500,4228,PENNSYLVANIA,STILLWATER LAKE,MONROE,475,PENNSYLVANIA,623,Pennsylvania,Monroe,41.118056,75.419444
501,4229,PENNSYLVANIA,LAKE WALLENPAUPACK,PIKE WAYNE,475,PENNSYLVANIA,624,Pennsylvania,Wayne,41.453333,75.1875
502,4402,RHODE ISLAND,SLATERSVILLE RESERVOIR,PROVIDENCE,474,RHODE ISLAND,559,Not Assigned,,41.978611,71.605
503,4403,RHODE ISLAND,TURNER RESERVOIR,PROVIDENCE,474,RHODE ISLAND,560,Not Assigned,,41.85,71.333333
504,4503,SOUTH CAROLINA,FISHING CREEK RESERVOIR,CHESTER LANCASTER,475,SOUTH CAROLINA,625,South Carolina,Chester,34.602222,80.890278
505,4504,SOUTH CAROLINA,LAKE GREENWOOD,"GREENWOOD, LAURENS, NEWBERRY",475,SOUTH CAROLINA,626,South Carolina,Saluda,34.183333,81.911111
506,4505,SOUTH CAROLINA,LAKE HARTWELL,ANDERSON OCONEEO PICKENS SC FRANKLIN HART STEPHENS GA,475,SOUTH CAROLINA,146,Georgia,Hart,34.358333,82.829167
507,4506,SOUTH CAROLINA,LAKE MARION,BERKELEY CALHOUN CLARENDON ORANGEBURG SUMTER,475,SOUTH CAROLINA,627,South Carolina,Orangeburg,33.433611,80.365278
508,4507,SOUTH CAROLINA,LAKE MURRAY,FAIRFIELD LEXINGTON NEWBERRY SALUDA RICHLAND,475,SOUTH CAROLINA,628,South Carolina,Lexington,34.049722,81.216667
509,4508,SOUTH CAROLINA,LAKE ROBINSON,CHESTERFIELD DARLINGTON,475,SOUTH CAROLINA,629,South Carolina,Darlington,34.406944,80.151389
510,4510,SOUTH CAROLINA,WATEREE LAKE,FAIRFIELD KERSHAW LANCASTER,475,SOUTH CAROLINA,630,South Carolina,Kershaw,34.338889,80.700833
511,4511,SOUTH CAROLINA,LAKE WYLIE,YORK SC GASTON HECKLENBURG NC,475,SOUTH CAROLINA,519,North Carolina,Gaston,35.236667,81.0125
512,4512,SOUTH CAROLINA,LAKE MOULTRIE,BERKELEY,475,SOUTH CAROLINA,631,South Carolina,Berkeley,33.333333,80.084722
513,4513,SOUTH CAROLINA,LAKE KEOWEE,OCONEE PICKENS,475,SOUTH CAROLINA,632,South Carolina,Oconee,34.734722,82.9125
514,4514,SOUTH CAROLINA,LAKE SECESSION,ABBEVILLE ANDERSON,475,SOUTH CAROLINA,633,South Carolina,Anderson,35.259722,82.608333
515,4515,SOUTH CAROLINA,SALUDA LAKE,GREENVILLE PICKENS,475,SOUTH CAROLINA,634,South Carolina,Greenville,34.852778,82.484167
516,4516,SOUTH CAROLINA,LAKE WILLIAM C. BOWEN,SPARTANBURG,475,SOUTH CAROLINA,635,South Carolina,Spartanburg,35.11,82.092222
517,4601,SOUTH DAKOTA,LAKE ALBERT,KINGSBURY,476,SOUTH DAKOTA,636,South Dakota,Brookings,44.516667,97.166667
518,4602,SOUTH DAKOTA,LAKE ALVIN,LINCOLN,476,SOUTH DAKOTA,637,South Dakota,Lincoln,43.4375,96.608333
519,4603,SOUTH DAKOTA,ANGOSTURA RESERVOIR,FALL RIVER,476,SOUTH DAKOTA,638,South Dakota,Fall River,43.341667,103.438056
520,4604,SOUTH DAKOTA,BRANT LAKE,LAKE,476,SOUTH DAKOTA,639,South Dakota,Lake,43.915278,96.939444
521,4605,SOUTH DAKOTA,LAKE BYRON,NA,476,SOUTH DAKOTA,640,South Dakota,Beadle,44.569167,98.118611
522,4606,SOUTH DAKOTA,CLEAR LAKE,MARSHALL,476,SOUTH DAKOTA,641,South Dakota,Marshall,45.691667,97.35
523,4607,SOUTH DAKOTA,CLEAR LAKE,MINNEHAHA,476,SOUTH DAKOTA,642,South Dakota,Minnehaha,43.756944,97.012222
524,4608,SOUTH DAKOTA,LAKE COCHRANE,DEUEL,476,SOUTH DAKOTA,643,South Dakota,Deuel,44.711111,96.475
525,4609,SOUTH DAKOTA,COTTONWOOD LAKE,NA,476,SOUTH DAKOTA,644,South Dakota,Spink,44.801389,98.665278
526,4610,SOUTH DAKOTA,DEERFIELD LAKE,PENNINGTON,476,SOUTH DAKOTA,645,South Dakota,Pennington,44.028333,103.786111
527,4611,SOUTH DAKOTA,ENEMY SWIM LAKE,DAY,476,SOUTH DAKOTA,561,Not Assigned,,45.7375,97.25
528,4612,SOUTH DAKOTA,LAKE HERMAN,LAKE,476,SOUTH DAKOTA,646,South Dakota,Lake,43.975833,97.165556
529,4613,SOUTH DAKOTA,LAKE ST. JOHN,HAMLIN,476,SOUTH DAKOTA,562,Not Assigned,,44.565,97.2
530,4614,SOUTH DAKOTA,LAME KAMPESKA,CODINGTDN,476,SOUTH DAKOTA,647,South Dakota,Codington,44.91,97.233889
531,4615,SOUTH DAKOTA,LAKE MADISON,LAKE,476,SOUTH DAKOTA,648,South Dakota,Lake,44.949167,97.000833
532,4616,SOUTH DAKOTA,LAKE MITCHELL,DAVISON,476,SOUTH DAKOTA,649,South Dakota,Davison,43.739444,98.030556
533,4617,SOUTH DAKOTA,LAKE NORDEN,HAMLIN,476,SOUTH DAKOTA,650,South Dakota,Hamlin,44.593056,97.2
534,4618,SOUTH DAKOTA,EAST OAKWOOD LAKE,RROOKINGS,476,SOUTH DAKOTA,651,South Dakota,Brookings,44.433333,96.966667
535,4619,SOUTH DAKOTA,WEST OAKWOOD LAKE,RROONINGS,476,SOUTH DAKOTA,652,South Dakota,Brookings,44.1875,96.986111
536,4620,SOUTH DAKOTA,PACTOLA RESERVOIR,PENNINGTON,476,SOUTH DAKOTA,653,South Dakota,Pennington,44.070278,103.490833
537,4621,SOUTH DAKOTA,PICKEREL LAKE,DAY,476,SOUTH DAKOTA,654,South Dakota,Day,45.484722,97.265833
538,4622,SOUTH DAKOTA,LAKE POINSETT,HROOKINGboHAMLIN,476,SOUTH DAKOTA,655,South Dakota,Hamlin,44.547222,97.080556
539,4623,SOUTH DAKOTA,SOUTH RED IRON LAKE,MARSHALL,476,SOUTH DAKOTA,656,South Dakota,Day,45.491667,96.266667
540,4624,SOUTH DAKOTA,RICHMOND LAKE,RROMN,476,SOUTH DAKOTA,657,South Dakota,Brown,45.552778,98.6
541,4625,SOUTH DAKOTA,ROY LAKE,MARSHALL,476,SOUTH DAKOTA,658,South Dakota,Marshall,45.691667,97.425
542,4626,SOUTH DAKOTA,SAND LAKE,NA,476,SOUTH DAKOTA,659,South Dakota,Brown,45.6675,98.305556
543,4627,SOUTH DAKOTA,SHERIDAN LAKE,PENNINGTON,476,SOUTH DAKOTA,660,South Dakota,Pennington,43.975278,103.451667
544,4628,SOUTH DAKOTA,STOCKADE LAKE,CUSTER,476,SOUTH DAKOTA,661,South Dakota,Custer,43.763889,103.5125
545,4629,SOUTH DAKOTA,EAST VERMILLION LAKE,MCCOOK,476,SOUTH DAKOTA,662,South Dakota,Mccook,43.590278,97.1725
546,4630,SOUTH DAKOTA,WALL LAKE,HINNEHAHA,476,SOUTH DAKOTA,663,South Dakota,Minnehaha,45.5625,96.9625
547,4631,SOUTH DAKOTA,NORTH WAUBAY LAKE,DAY,476,SOUTH DAKOTA,664,South Dakota,Day,45.391667,96.45
548,4701,TENNESSEE,BARKLEY LAKE,STEWART MONTGOMERY TRIGG LYON KY,475,TENNESSEE,252,Kentucky,Lyon,37.009722,88.218056
549,4704,TENNESSEE,BOONE RESERVOIR,WASHINGTON SULLIVAN CARTER,475,TENNESSEE,666,Tennessee,Sullivan,36.438889,82.437222
550,4706,TENNESSEE,CHEATHAM RESERVOIR,CHEATHAM DAVIDSON,475,TENNESSEE,667,Tennessee,Dickson,36.319167,87.226111
551,4707,TENNESSEE,CHEROKEE LAKE,JEFFERSON HAMBLEN GRAINGER HARKINS,475,TENNESSEE,668,Tennessee,Grainger,36.165833,83.495833
552,4708,TENNESSEE,CHICKAMAUGA RESERVOIR,HAMILTON RHEA MEIGS MCMINN,475,TENNESSEE,669,Tennessee,Hamilton,35.102778,85.225
553,4711,TENNESSEE,DOUGLAS LAKE,SEVIER JEFFERSON COCKE,475,TENNESSEE,670,Tennessee,Jefferson,36.076667,83.251389
554,4712,TENNESSEE,FT. LOUDON RESERVOIR,LOUDON KNOX BLOUNT,475,TENNESSEE,671,Tennessee,Loudon,35.792222,84.239444
555,4713,TENNESSEE,GREAT FALLS LAKE,WHITE VAN BUREN,475,TENNESSEE,672,Tennessee,Warren,35.801667,85.621111
556,4717,TENNESSEE,NICKAJACK RESERVOIR,MARION HAMILTON,475,TENNESSEE,673,Tennessee,Marion,35.002778,85.616667
557,4720,TENNESSEE,OLD HICKORY RESERVOIR,DAVIDSON RUTHERFORD; SMITM SUMNER TROUSDALE WILSON,475,TENNESSEE,674,Tennessee,Davidson,36.294444,86.654167
558,4722,TENNESSEE,WATTS BAR RESERVOIR,CUMBERLAND LOUDON MEIGS RHEA ROANE,475,TENNESSEE,675,Tennessee,Meigs,35.6225,84.783333
559,4723,TENNESSEE,J. PERCY PRIEST RESERVOIR,DAVIDSON RUTHERFORD,475,TENNESSEE,676,Tennessee,Davidson,36.154167,86.601389
560,4724,TENNESSEE,TIMS FORD RESERVOIR,FRANKLIN MOORE,475,TENNESSEE,677,Tennessee,Franklin,35.2,86.279167
561,4725,TENNESSEE,SOUTH HOLSTON RESERVOIR,SULLIVAN IN WASHINGTON VA,475,TENNESSEE,678,Tennessee,Sullivan,36.559444,82.087778
562,4727,TENNESSEE,REELFOOT LAKE,OBION,475,TENNESSEE,679,Tennessee,Lake,36.361389,89.426389
563,4728,TENNESSEE,WOODS RESERVOIR,FRANKLIN COFFEE,475,TENNESSEE,680,Tennessee,Franklin,35.297778,86.096111
564,4801,TEXAS,AMISTAD RESERVOIR,NA,476,TEXAS,681,Texas,Val Verde,29.459722,101.055556
565,4802,TEXAS,LAKE BASTROP,BASTROP,476,TEXAS,682,Texas,Bastrop,30.155556,97.291667
566,4803,TEXAS,BELTON RESERVOIR,HELL CURYELL,476,TEXAS,683,Texas,Bell,31.106667,97.475278
567,4804,TEXAS,BRAUNIG LAKE,BEXAR,476,TEXAS,684,Texas,Bexar,29.237778,98.371111
568,4805,TEXAS,LAKE BROWNWOOD,RROHN,476,TEXAS,685,Texas,Brown,31.838889,99.004444
569,4806,TEXAS,LAKE BUCHANAN,HURNET LLANO,476,TEXAS,686,Texas,Burnet,30.751389,98.419722
570,4807,TEXAS,CADDO LAKE,"CADDO LA, MARION HARRISON Tx",476,TEXAS,271,Louisiana,Caddo,32.743889,94.029444
571,4808,TEXAS,CALAVERAS LAKE,BEXAR,476,TEXAS,687,Texas,Bexar,29.278889,98.305833
572,4809,TEXAS,CANYON RESERVOIR,COHAL,476,TEXAS,688,Texas,Comal,29.868056,98.199444
573,4810,TEXAS,LAKE COLORADO CITY,MITCHELL,476,TEXAS,689,Texas,Mitchell,32.321944,100.917778
574,4811,TEXAS,LAKE CORPUS CHRISTI,"JIH WELLS, LIVE OAK SAN PATRICIO",476,TEXAS,690,Texas,San Patricio,28.043611,97.870556
575,4812,TEXAS,LAKE DIVERSION,ARCHER BAYLOR,476,TEXAS,691,Texas,Baylor,33.776389,98.996944
576,4813,TEXAS,EAGLE MOUNTAIN LAKE,TARRANI RISE,476,TEXAS,692,Texas,Tarrant,32.868056,97.501667
577,4814,TEXAS,LAKE FORT PHANTOM HILL,JONES,476,TEXAS,693,Texas,Jones,32.615278,99.668056
578,4815,TEXAS,LAKE LEWISVILLE,DENTON,476,TEXAS,694,Texas,Denton,33.071667,96.965
579,4816,TEXAS,LAKE KEMP,NA,476,TEXAS,695,Texas,Baylor,33.756667,99.151667
580,4817,TEXAS,LAKE HOUSTON,HARRIS,476,TEXAS,696,Texas,Harris,29.917778,95.143056
581,4818,TEXAS,LAKE OF THE PINES,CAMP MARION MORRIS UPSMUR,476,TEXAS,697,Texas,Marion,32.751667,94.502222
582,4819,TEXAS,LAKE LAVON,COLLIN,476,TEXAS,698,Texas,Collin,33.034722,96.477778
583,4820,TEXAS,LIVINGSTON RESERVOIR,POLK SAN JACINTO TRINITY IALKFR,476,TEXAS,699,Texas,San Jacinto,30.64,95.021667
584,4821,TEXAS,LAKE LYNDON B. JOHNSON,BURNET LLANO,476,TEXAS,700,Texas,Burnet,30.555278,98.341111
585,4822,TEXAS,MEDINA LAKE,SANDERA MEDINA,476,TEXAS,701,Texas,Medina,29.540833,98.933611
586,4823,TEXAS,LAKE MEREDITH,HUTCHINSON MOORE POTTER,476,TEXAS,702,Texas,Hutchinson,35.709722,101.552222
587,4824,TEXAS,PALESTINE RESERVOIR,ANDERSON CHEROKEE HENDERSON SMITH,476,TEXAS,703,Texas,Anderson,32.054167,95.438333
588,4825,TEXAS,POSSUM KINGDOM RESERVOIR,PALO PINTO STEPHENS YOUNG,476,TEXAS,704,Texas,Palo Pinto,32.872222,98.428333
589,4826,TEXAS,O.C. FISHER,TOM GREEN,476,TEXAS,705,Texas,Tom Green,31.484167,100.483611
590,4827,TEXAS,SAM RAYBURN RESERVOIR,ANGELINA JASPER NACOGDOCHES SABINE,476,TEXAS,706,Texas,Jasper,31.064167,94.106667
591,4828,TEXAS,E.V. SPENCE RESERVOIR,COAE,476,TEXAS,707,Texas,Coke,31.923333,100.561944
592,4829,TEXAS,SOMERVILLE LAKE,BURLESONO LEE HASHINGTON,476,TEXAS,563,Not Assigned,,30.279167,96.625
593,4830,TEXAS,LAKE STAMFORD,HASKELL,476,TEXAS,708,Texas,Haskell,33.074167,99.562222
594,4831,TEXAS,STILLHOUSE HOLLOW RESERVOIR,HELL OIR,476,TEXAS,709,Texas,Bell,31.088889,97.375
595,4832,TEXAS,LAKE TAWAKONI,HUNT RAINS VAN zANDT,476,TEXAS,710,Texas,Rains,32.816944,95.914444
596,4833,TEXAS,WRIGHT PATMAN,BOhIEO CASS,476,TEXAS,711,Texas,Cass,33.309167,94.161389
597,4834,TEXAS,LAKE TEXOMA,COOKE GRAYSON TXTBRYAN JOHNSON LOVE MARSHALL 0K,476,TEXAS,600,Oklahoma,Bryan,34.001667,96.621667
598,4835,TEXAS,LAKE TRAVIS,RURNET TRAVlb,476,TEXAS,712,Texas,Travis,30.392222,97.901111
599,4836,TEXAS,TRINIDAD LAKE,HENDERSON,476,TEXAS,713,Texas,Henderson,32.115278,96.095833
600,4837,TEXAS,TWIN BUTTES RESERVOIR,TOM GREEN,476,TEXAS,714,Texas,Tom Green,31.373611,100.543056
601,4838,TEXAS,WHITE RIVER RESERVOIR,CROSEY,476,TEXAS,715,Texas,Crosby,33.457778,101.0875
602,4839,TEXAS,WHITNEY RESERVOIR,ROSDUE HILL,476,TEXAS,716,Texas,Bosque,31.866111,97.371667
603,4901,UTAH,BEAR LAKE,RICH UTi BEAR LAKE ID,477,UTAH,160,Idaho,Bear Lake,42.103333,111.335278
604,4902,UTAH,LOWER BOWNS RESERVOIR,GARFIELD,477,UTAH,717,Utah,Garfield,37.983611,111.270278
605,4903,UTAH,DEER CREEK RESERVOIR,VASATCR,477,UTAH,718,Utah,Wasatch,40.409722,111.522222
606,4904,UTAH,ECHO RESERVOIR,SUMMIT,477,UTAH,719,Utah,Summit,40.964167,111.426944
607,4905,UTAH,LYNN RESERVOIR,BOX ELDER,477,UTAH,720,Utah,Box Elder,41.847778,113.725
608,4906,UTAH,FISH LAKE,SEVIER,477,UTAH,721,Utah,Sevier,38.536667,111.723889
609,4907,UTAH,HUNTINGTON LAKE,EMERY,477,UTAH,722,Utah,Emery,39.3425,110.944444
610,4908,UTAH,JOE'S VALLEY RESERVOIR,EMERY,477,UTAH,723,Utah,Emery,39.288889,111.270833
611,4909,UTAH,MINERSVILLE RESERVOIR,BEAVER,477,UTAH,724,Utah,Beaver,38.2175,112.832778
612,4910,UTAH,MOON LAKE,DUCHESNE,477,UTAH,725,Utah,Duchesne,40.553889,110.49
613,4911,UTAH,NAVAJO LAKE,KANE,477,UTAH,726,Utah,Kane,37.524444,112.786944
614,4912,UTAH,NEWCASTLE RESERVOIR,IRON,477,UTAH,727,Utah,Iron,37.65,113.516667
615,4913,UTAH,OTTER CREEK RESERVOIR,PIUTE,477,UTAH,728,Utah,Piute,38.169722,112.020278
616,4914,UTAH,PANGUITCH LAKE,GARFIELD,477,UTAH,729,Utah,Garfield,37.715556,112.631944
617,4915,UTAH,PELICAN LAKE,UINTAH,477,UTAH,730,Utah,Uintah,40.190833,109.688333
618,4916,UTAH,PINEVIEW RESERVOIR,HEBER,477,UTAH,731,Utah,Weber,41.255278,111.839167
619,4917,UTAH,PIUTE RESERVOIR,PIUTE,477,UTAH,732,Utah,Piute,38.323611,112.191667
620,4918,UTAH,PORCUPINE RESERVOIR,CACHE,477,UTAH,733,Utah,Cache,41.519444,111.744722
621,4919,UTAH,PRUESS LAKE,MILLARD,477,UTAH,734,Utah,Millard,38.883333,114.0125
622,4920,UTAH,SEVIER BRIDGE RESERVOIR,JUAD SANPETE,477,UTAH,735,Utah,Sanpete,39.372222,112.029167
623,4921,UTAH,STARVATION RESERVOIR,DUCHESNE,477,UTAH,736,Utah,Duchesne,40.171111,110.497222
624,4922,UTAH,STEINAKER RESERVOIR,UINTAH,477,UTAH,737,Utah,Uintah,40.527222,109.525833
625,4923,UTAH,TROPIC RESERVOIR,GARFIELD,477,UTAH,738,Utah,Garfield,37.598056,112.253056
626,4924,UTAH,UTAH LAKE,UTAH,477,UTAH,739,Utah,Utah,40.350833,111.886389
627,4925,UTAH,WILLARD RESERVOIR,Box ELDER,477,UTAH,740,Utah,Box Elder,41.3575,112.0825
628,5001,VERMONT,LAKE CHAMPLAIN,VT AND NY AREA,474,VERMONT,502,New York,Warren,43.55,73.45
629,5002,VERMONT,CLYDE POND,ORLEANS,474,VERMONT,742,Vermont,Orleans,44.933333,72.168056
630,5005,VERMONT,HARRIMAN RESERVOIR,WINDHAM,474,VERMONT,743,Vermont,Windham,42.8,72.906667
631,5007,VERMONT,LAKE LAMOILLE,LAMOILLE,474,VERMONT,744,Vermont,Lamoille,44.566667,72.607222
632,5008,VERMONT,LAKE MEMPHREMAGOG,ORLEANS,474,VERMONT,745,Vermont,Orleans,44.925,72.216667
633,501,ARKANSAS,BEAVER RESERVOIR,BENTON CARROLL o IASHINGTON,476,ARKANSAS,24,Arkansas,Carroll,36.420833,93.851389
634,5010,VERMONT,ARROWHEAD MOUNTAIN LAKE,CHITTENDEN FRANKLIN,474,VERMONT,746,Vermont,Franklin,44.680833,73.100556
635,5011,VERMONT,WATERBURY RESERVOIR,"WASHINGTON, LAMOILLE",474,VERMONT,747,Vermont,Washington,44.385,72.768333
636,502,ARKANSAS,BLACKFISH LAKE,CRITTENDEN ST FRANCIS,476,ARKANSAS,25,Arkansas,St Francis,35.129167,90.456944
637,503,ARKANSAS,BLUE MOUNTAIN LAKE,LOGAN YELL,476,ARKANSAS,26,Arkansas,Yell,35.103889,93.651389
638,504,ARKANSAS,BULL SHOALS RESERVOIR,BAXTER BOONE MARION AR! TANEY OZARK MO,476,ARKANSAS,27,Arkansas,Baxter,36.3675,92.572222
639,505,ARKANSAS,LAKE CATHERINE,GARLAND HOT SPRING,476,ARKANSAS,28,Arkansas,Garland,34.427222,92.972778
640,506,ARKANSAS,CHICOT LAKE,CHICOT,476,ARKANSAS,29,Arkansas,Chicot,33.376944,91.222778
641,507,ARKANSAS,DEGRAY RESERVOIR,CLARK HOT SPRING,476,ARKANSAS,30,Arkansas,Clark,34.212778,93.110556
642,508,ARKANSAS,LAKE ERLING,LAFAYETTE,476,ARKANSAS,31,Arkansas,Lafayette,33.047778,93.522222
643,509,ARKANSAS,GRAND LAKE,CHICOT,476,ARKANSAS,32,Arkansas,Chicot,33.051389,91.197222
644,510,ARKANSAS,HAMILTON LAKE,GARLAND,476,ARKANSAS,33,Arkansas,Garland,34.484722,93.130833
645,5103,VIRGINIA,CLAYTOR LAKE,PULASKI,475,VIRGINIA,748,Virginia,Pulaski,37.073611,80.590278
646,5105,VIRGINIA,JOHN W FLANNAGAN RESERVOIR,DICKENSON,475,VIRGINIA,749,Virginia,Dickenson,37.232222,82.343889
647,5106,VIRGINIA,JOHN H KERR RESERVOIR,HALIFAX MECKLENBURG VA; GRANVILLE VANCE WARREN NC,475,VIRGINIA,520,North Carolina,Vance,36.454167,78.381944
648,5108,VIRGINIA,OCCOQUAN RESERVOIR,FAIRFAX,475,VIRGINIA,750,Virginia,Fairfax,38.696111,77.280278
649,511,ARKANSAS,MILLWOOD RESERVOIR,HEMPSTEAD HOUARD LITTLE RIVER SEVIER,476,ARKANSAS,34,Arkansas,Hempstead,33.696667,93.962222
650,5110,VIRGINIA,SMITH MOUNTAIN RESERVOIR,BEDFORD FRANKLIN PITTSYLVANIA,475,VIRGINIA,751,Virginia,Bedford,37.042778,79.5375
651,5111,VIRGINIA,LAKE CHESDIN,AMELIA CHESTERFIELD DINWIDDIE,475,VIRGINIA,752,Virginia,Dinwiddie,37.220833,77.526111
652,5112,VIRGINIA,CHICKAHOMINY LAKE,NEW KENT CHARLES,475,VIRGINIA,753,Virginia,New Kent,37.410278,76.9425
653,5113,VIRGINIA,RIVANNA RESERVOIR,ALHERMARLE,475,VIRGINIA,754,Virginia,Albemarle,38.095,78.468889
654,512,ARKANSAS,NIMROD LAKE,PERRY YELL,476,ARKANSAS,35,Arkansas,Yell,34.949444,93.231111
655,513,ARKANSAS,NORFOLK LAKE,NA,476,ARKANSAS,36,Arkansas,Baxter,36.249444,92.237222
656,514,ARKANSAS,OUACHITA LAKE,GARLAND MONTGOMERY,476,ARKANSAS,37,Arkansas,Garland,34.573889,93.195833
657,515,ARKANSAS,TABLE ROCK RESERVOIR,"BOONE CARROLL AR, BARRY TANEY MO",476,ARKANSAS,408,Missouri,Taney,36.595556,93.3125
658,516,ARKANSAS,GREER'S FERRY RESERVOIR,VAN DUREN CLERURNE,476,ARKANSAS,38,Arkansas,Cleburne,35.476667,92.0925
659,5301,WASHINGTON,AMERICAN LAKE,PIERCE,477,WASHINGTON,755,Washington,Pierce,47.112222,122.581389
660,5302,WASHINGTON,BANKS LAKE ,GRANT DOUGLAS,477,WASHINGTON,756,Washington,Grant,47.625833,119.297222
661,5303,WASHINGTON,LAKE CHELAN,cHELAN,477,WASHINGTON,757,Washington,Chelan,47.8425,120.051111
662,5304,WASHINGTON,DIAMOND LAKE,PEND OREILLE,477,WASHINGTON,758,Washington,Pend Oreille,48.124444,117.210556
663,5305,WASHINGTON,GREEN LAKE,KING,477,WASHINGTON,759,Washington,King,47.764444,122.3375
664,5306,WASHINGTON,KEECHELUS LAKE,KITTITAS,477,WASHINGTON,760,Washington,Kittitas,47.325,121.345833
665,5307,WASHINGTON,MAYFIELD LAKE,LERIS,477,WASHINGTON,761,Washington,Lewis,46.504167,122.580556
666,5308,WASHINGTON,MEDICAL LAKE,SPOKANE,477,WASHINGTON,762,Washington,Spokane,47.575278,117.686111
667,5309,WASHINGTON,MOSES LAKE,GRANT,477,WASHINGTON,763,Washington,Grant,47.102778,119.296944
668,5310,WASHINGTON,OZETTE LAKE,CLALLAM,477,WASHINGTON,764,Washington,Clallam,48.1375,124.65
669,5311,WASHINGTON,SAMMAMISH LAKE,KING,477,WASHINGTON,765,Washington,King,47.633333,122.077778
670,5312,WASHINGTON,LAKE WHATCOM,HHATCOH,477,WASHINGTON,766,Washington,Whatcom,48.689167,122.300833
671,5313,WASHINGTON,LOWER GRANITE RESERVOIR,GARFIELD wHITMAN,477,WASHINGTON,161,Idaho,Nez Perce,46.418056,117.033333
672,5401,WEST VIRGINIA,BLUESTONE RESERVOIR,GILES VA MERCER MONROE SUMMERS WV,475,WEST VIRGINIA,767,West Virginia,Summers,37.638889,80.888056
673,5402,WEST VIRGINIA,LAKE LYNN,MONONGALIA,475,WEST VIRGINIA,768,West Virginia,Monongalia,39.68,79.868056
674,5403,WEST VIRGINIA,SUMMERSVILLE RESERVOIR,NICHOLAS,475,WEST VIRGINIA,769,West Virginia,Nicholas,38.2175,80.891944
675,5404,WEST VIRGINIA,TYGART RESERVOIR,BARBOUR TAYLOR,475,WEST VIRGINIA,770,West Virginia,Taylor,39.311111,80.033333
676,5502,WISCONSIN,ALTOONA LAKE,EAU CLAIRE,474,WISCONSIN,771,Wisconsin,Eau Claire,44.816667,91.45
677,5503,WISCONSIN,BEAVER DAH,BARRON,474,WISCONSIN,772,Wisconsin,Dodge,43.535,88.921667
678,5508,WISCONSIN,LAKE BUTTE DES MORTS,WINNEBAGO,474,WISCONSIN,773,Wisconsin,Winnebago,44.1,88.666667
679,5509,WISCONSIN,BUTTERNUT LAKE,PRICE ASHLAND,474,WISCONSIN,774,Wisconsin,Ashland,45.991667,90.508333
680,5510,WISCONSIN,CASTLE ROCK FLOWAGE,JUNEAU ADAMS,474,WISCONSIN,564,Not Assigned,,43.866667,89.958333
681,5513,WISCONSIN,DELAVAN LAKE,WALWORTH,474,WISCONSIN,775,Wisconsin,Walworth,42.621667,88.59
682,5515,WISCONSIN,EAU CLAIRE LAKE,EAU CLAIRE,474,WISCONSIN,776,Wisconsin,Eau Claire,44.761667,91.13
683,5519,WISCONSIN,GREEN LAKE,GREEN LAKE,474,WISCONSIN,777,Wisconsin,Green Lake,43.825,88.933333
684,5520,WISCONSIN,KEGONSA LAKE,DANE,474,WISCONSIN,778,Wisconsin,Dane,42.975,89.258333
685,5522,WISCONSIN,KOSHKONONG LAKE,JEFFERSON,474,WISCONSIN,779,Wisconsin,Jefferson,42.888333,88.918333
686,5531,WISCONSIN,NAGAWICKA LAKE,WAUKESHA,474,WISCONSIN,780,Wisconsin,Waukesha,43.068333,88.39
687,5532,WISCONSIN,OCONOMOWOC,WAUKESHA,474,WISCONSIN,781,Wisconsin,Waukesha,43.1,88.441667
688,5534,WISCONSIN,PENTWELL FLOWAGE,"JUNEAU, ADAMS, WOOD",474,WISCONSIN,782,Wisconsin,Adams,44.061667,90.02
689,5536,WISCONSIN,PINE LAKE,WAUKESHA,474,WISCONSIN,784,Wisconsin,Waukesha,43.12,88.05
690,5538,WISCONSIN,LAKE POYGAN,"WINNEBAGO, WAUSHARA",474,WISCONSIN,785,Wisconsin,Winnebago,44.12,88.883333
691,5539,WISCONSIN,SHAWANO LAKE,SHAWANO,474,WISCONSIN,786,Wisconsin,Shawano,44.813333,88.476667
692,5541,WISCONSIN,SINISSIPPI LAKE,DODGE,474,WISCONSIN,787,Wisconsin,Dodge,43.358333,88.608333
693,5545,WISCONSIN,SWAN LAKE,COLUMBIA,474,WISCONSIN,788,Wisconsin,Columbia,43.546667,89.351667
694,5546,WISCONSIN,TAINTER LAKE,DUNN,474,WISCONSIN,789,Wisconsin,Dunn,44.988333,91.833333
695,5548,WISCONSIN,TOWNLINE LAKE,ONEIDA,474,WISCONSIN,790,Wisconsin,Oneida,45.813333,89.163333
696,5550,WISCONSIN,WAPOGASSET LAKE,POLK,474,WISCONSIN,791,Wisconsin,Polk,45.316667,92.422222
697,5551,WISCONSIN,WAUSAU LAKE,MARATHON,474,WISCONSIN,792,Wisconsin,Marathon,44.896667,89.623333
698,5554,WISCONSIN,LAKE WINNEBAGO,"WINNEBAGO, FOND DU LAC, CALUMET",474,WISCONSIN,793,Wisconsin,Fond Du Lac,43.816667,88.466667
699,5555,WISCONSIN,WISCONSIN LAKE,COLUMBIA SAUK,474,WISCONSIN,794,Wisconsin,Columbia,43.368333,89.621667
700,5556,WISCONSIN,LAKE WISSOTA,CHIPPEWA,474,WISCONSIN,795,Wisconsin,Chippewa,44.94,91.321667
701,5557,WISCONSIN,PEWAUKEE LAKE,WAUKESHA,474,WISCONSIN,796,Wisconsin,Waukesha,43.08,88.268333
702,5558,WISCONSIN,OKAUCHEE,WAUKESHA,474,WISCONSIN,797,Wisconsin,Waukesha,43.131667,88.08
703,5559,WISCONSIN,TICHIGAN LAKE,RACINE,474,WISCONSIN,798,Wisconsin,Racine,42.816667,88.208333
704,5560,WISCONSIN,BROWNS LAKE,RACINE,474,WISCONSIN,799,Wisconsin,Racine,42.683333,88.241667
705,5561,WISCONSIN,LAKE GENEVA,WALWORTH,474,WISCONSIN,800,Wisconsin,Walworth,42.565,88.488333
706,5562,WISCONSIN,COMO,WALWORTH,474,WISCONSIN,801,Wisconsin,Walworth,42.595,88.503333
707,5563,WISCONSIN,LAC LA BELLE,WAUKESHA,474,WISCONSIN,802,Wisconsin,Waukesha,43.116667,88.508333
708,5564,WISCONSIN,ROCK LAKE,JEFFERSON,474,WISCONSIN,803,Wisconsin,Jefferson,43.083333,88.925
709,5565,WISCONSIN,BIG EAU PLEINE RESERVOIR,MARATHON,474,WISCONSIN,804,Wisconsin,Marathon,44.733333,89.77
710,5566,WISCONSIN,ROUND,WAUPACA,474,WISCONSIN,805,Wisconsin,Waupaca,44.333333,89
711,5568,WISCONSIN,ROME POND,JEFFERSON,474,WISCONSIN,807,Wisconsin,Jefferson,42.983333,88.630556
712,5569,WISCONSIN,MIDDLE LAKE,WALWORTH,474,WISCONSIN,808,Wisconsin,Walworth,42.775,88.566667
713,5570,WISCONSIN,GRAND LAKE,GREEN LAKE,474,WISCONSIN,809,Wisconsin,Green Lake,43.688333,89.115
714,5571,WISCONSIN,CRYSTAL LAKE,NA,474,WISCONSIN,810,Wisconsin,Vilas,46,89.608333
715,5572,WISCONSIN,TROUT LAKE,VILAS,474,WISCONSIN,811,Wisconsin,Vilas,46.065556,89.663333
716,5574,WISCONSIN,WILLOW RESERVOIR,ONEIDA,474,WISCONSIN,813,Wisconsin,Oneida,45.748333,89.886667
717,5576,WISCONSIN,YELLOM LAKE,BURNETT,474,WISCONSIN,815,Wisconsin,Burnett,45.925,92.416667
718,5601,WYOMING,BIG SANDY RESERVOIR,SUULETTE SNEETMATER,477,WYOMING,818,Wyoming,Sweetwater,42.248056,109.431389
719,5602,WYOMING,BOULDER LAKE,SUMLETTE,477,WYOMING,819,Wyoming,Sublette,42.856111,109.623056
720,5603,WYOMING,BOYSEN RESERVOIR,FREMONT,477,WYOMING,820,Wyoming,Fremont,43.241667,108.179167
721,5604,WYOMING,LAKE DE SMET,JOHNSON,477,WYOMING,821,Wyoming,Johnson,44.461111,106.738056
722,5605,WYOMING,FLAMING GORGE RESERVOIR,SWEETWATER,477,WYOMING,741,Utah,Daggett,40.988333,109.620833
723,5606,WYOMING,FREMONT LAKE,SUHLETTE,477,WYOMING,822,Wyoming,Sublette,43.019444,109.778611
724,5607,WYOMING,GLENDO RESERVOIR,CONVERSE PLATTE,477,WYOMING,823,Wyoming,Platte,42.477222,104.953333
725,5608,WYOMING,KEYHOLE RESERVOIR,CROOK,477,WYOMING,824,Wyoming,Crook,44.380556,104.775
726,5609,WYOMING,OCEAN LAKE,FREMONT,477,WYOMING,825,Wyoming,Fremont,43.190556,108.611389
727,5610,WYOMING,SEMINOE RESERVOIR,CARBON,477,WYOMING,826,Wyoming,Carbon,41.948611,107.845833
728,5611,WYOMING,SODA LAKE,SURLETTE,477,WYOMING,827,Wyoming,Sublette,42.836667,109.598889
729,5612,WYOMING,VIVA NAUGHTON RESERVOIR,LINCOLN,477,WYOMING,828,Wyoming,Lincoln,42.004167,110.663333
730,5613,WYOMING,WOODRUFF NARROWS RESERVOIR,UINTA,477,WYOMING,829,Wyoming,Uinta,41.503333,111.0175
731,5614,WYOMING,YELLOWTAIL RESERVOIR,BIGHORN,477,WYOMING,430,Montana,Big Horn,45.0225,108.246944
732,601,CALIFORNIA,LAKE AMADOR,AMADOR,477,CALIFORNIA,39,California,Amador,38.302778,120.886667
733,602,CALIFORNIA,BOCA RESERVOIR,BOCA RESERVOIR IOLIGDTROPHIC,477,CALIFORNIA,40,California,Nevada,39.416389,120.09
734,603,CALIFORNIA,LAKE BRITTON,SHASTA,477,CALIFORNIA,41,California,Shasta,41.021667,121.667222
735,604,CALIFORNIA,LAKE CASITAS,VENTURA,477,CALIFORNIA,42,California,Ventura,34.373611,119.3375
736,605,CALIFORNIA,LAKE CRONLEY,MONO,477,CALIFORNIA,43,California,Mono,37.587778,118.709167
737,606,CALIFORNIA,DON PEDRO RESERVOIR,TUOLUMNE,477,CALIFORNIA,44,California,Tuolumne,37.712778,120.400833
738,607,CALIFORNIA,LAKE ELSINORE,RIVERSIDE,477,CALIFORNIA,45,California,Riverside,33.668333,117.360556
739,608,CALIFORNIA,FALLEN LEAF LAKE,EL DORADO,477,CALIFORNIA,46,California,El Dorado,38.881944,120.0675
740,609,CALIFORNIA,LAKE HENNESSEY,NAPA,477,CALIFORNIA,47,California,Napa,38.481389,122.370556
741,610,CALIFORNIA,LAKE HENSHAW,SAN DIEGO,477,CALIFORNIA,48,California,San Diego,33.236389,116.752778
742,611,CALIFORNIA,IRON GATE RESERVOIR,SISKIYOU,477,CALIFORNIA,49,California,Siskiyou,41.934722,122.433889
743,614,CALIFORNIA,LOPEZ RESERVOIR,SAN LUIS OBISPO,477,CALIFORNIA,50,California,San Luis Obispo,35.188333,120.485556
744,615,CALIFORNIA,LAKE MARY,MONO,477,CALIFORNIA,51,California,Mono,37.603889,119.004167
745,616,CALIFORNIA,LAKE MENDOCINO,MENDOCINO,477,CALIFORNIA,52,California,Mendocino,39.197778,123.179167
746,617,CALIFORNIA,NICASIO RESERVOIR,MARIN,477,CALIFORNIA,53,California,Marin,38.0775,122.752778
747,618,CALIFORNIA,LOHER OTAY RESERVOIR,SAN DIEGO,477,CALIFORNIA,54,California,San Diego,32.613056,116.927778
748,619,CALIFORNIA,LAKE PILLSBURY,LAKE,477,CALIFORNIA,55,California,Lake,39.407222,122.955556
749,620,CALIFORNIA,SANTA MARGARITA LAKE,SAN LUIS OBISPO,477,CALIFORNIA,56,California,San Luis Obispo,35.25,120.500278
750,621,CALIFORNIA,SHASTA LAKE,SHASTA,477,CALIFORNIA,57,California,Shasta,40.719444,122.414722
751,622,CALIFORNIA,SHAVER LAKE,FRESNO,477,CALIFORNIA,58,California,Fresno,37.144444,119.3
752,623,CALIFORNIA,SILVER LAKE,MONO,477,CALIFORNIA,59,California,Mono,37.778889,119.125833
753,624,CALIFORNIA,TULLOCK RESERVOIR,CALAVERAS TUOLUMNE,477,CALIFORNIA,60,California,Tuolumne,37.877222,120.602778
754,625,CALIFORNIA,UPPER TWIN LAKE,MONO,477,CALIFORNIA,61,California,Mono,38.152778,119.354167
755,626,CALIFORNIA,LOWER TWIN LAKE,MONO,477,CALIFORNIA,62,California,Mono,38.158333,119.340278
756,801,COLORADO,BARKER RESERVOIR,BOULDER,477,COLORADO,64,Colorado,Boulder,39.965556,105.483333
757,802,COLORADO,BARR LAKE,ADAMS,477,COLORADO,65,Colorado,Adams,39.940833,104.748056
758,803,COLORADO,BLUE MESA RESERVOIR,GUNNISON,477,COLORADO,66,Colorado,Gunnison,38.4575,107.327222
759,804,COLORADO,CHERRY CREEK LAKE,ARAPAHOE,477,COLORADO,67,Colorado,Arapahoe,39.649444,104.853611
760,806,COLORADO,DILLON RESERVOIR,SUMMIT,477,COLORADO,69,Colorado,Summit,39.608333,106.022778
761,807,COLORADO,GRAND LAKE,GRAND 99* INCLUDES TRIRS AND LOADS FOR SRADOM MIN LAKE (0813,477,COLORADO,70,Colorado,Grand,40.239722,105.805
762,808,COLORADO,GREEN MOUNTAIN RESERVOIR,SUMMIT,477,COLORADO,71,Colorado,Summit,39.876111,106.315833
763,809,COLORADO,HOLBROOK RESERVOIR,OTERO,477,COLORADO,72,Colorado,Otero,38.0625,103.610556
764,810,COLORADO,LAKE MEREDITH,CROWLEY,477,COLORADO,73,Colorado,Crowley,38.22,103.670278
765,811,COLORADO,MILTON RESERVOIR,MELD,477,COLORADO,74,Colorado,Weld,40.236944,104.637222
766,812,COLORADO,NAVAJO RESERVOIR,"ARCMULETA C0, SAN JUAN RIO ARRIBA NM",477,COLORADO,75,Colorado,Archuleta,37.001944,107.412222
767,813,COLORADO,SHADOW MOUNTAIN LAKE,GRAND 0 SEE GRAND LAKE (00071 FOR LOADING VALUES,477,COLORADO,76,Colorado,Grand,40.244722,105.832222
768,901,CONNECTICUT,ASPINOOK,NEW LONDON,474,CONNECTICUT,77,Connecticut,New London,41.626944,71.978056
769,902,CONNECTICUT,BANTAM LAKE,LITCHFIELD,474,CONNECTICUT,78,Connecticut,Litchfield,41.7,73.225
770,903,CONNECTICUT,COMMUNITY LAKE,NEW HAVEN,474,CONNECTICUT,79,Connecticut,New Haven,41.463889,72.828611
771,904,CONNECTICUT,EAGLEVILLE LAKE,TOLLAND,474,CONNECTICUT,535,Not Assigned,,41.783333,72.283333
772,905,CONNECTICUT,HANOVER POND,NEW HAVEN,474,CONNECTICUT,80,Connecticut,New Haven,41.521111,72.827222
773,910,CONNECTICUT,LAKE ZOAR,LITCHFIELD NEH HAVEN,474,CONNECTICUT,82,Connecticut,Fairfield,41.383333,73.175
774,911,CONNECTICUT,LAKE LILLINONAH,FAIRFIELD,474,CONNECTICUT,83,Connecticut,Fairfield,41.450833,73.301111
775,912,CONNECTICUT,LAKE HOUSATONIC,NEWHAVEN FAIR FIELD,474,CONNECTICUT,84,Connecticut,New Haven,41.327778,73.106389
